{
"type": "FeatureCollection",
"name": "finalcat_info_riv_v1-0",
"crs": { "type": "name", "properties": { "name": "urn:ogc:def:crs:OGC:1.3:CRS84" } },
"features": [
{ "type": "Feature", "properties": { "SubId": 90011484, "DowSubId": 90013481, "RivSlope": 0.0030875634826279998, "RivLength": 7032.558385, "BasSlope": 1.0144576125618341, "BasAspect": 178.63749701443135, "BasArea": 51113896.708722003, "BkfWidth": 16.999901376499999, "BkfDepth": 0.45209750200900001, "Lake_Cat": 0, "HyLakeId": 0, "LakeVol": 0.0, "LakeDepth": 0.0, "LakeArea": 0.0, "Laketype": 0, "Has_POI": 0, "MeanElev": 485.54523629172479, "FloodP_n": 0.050948320234134002, "Q_Mean": 3.5182044384531639, "Ch_n": 0.039866257381685997, "DrainArea": 98300446.164553002, "Strahler": 2, "Seg_ID": 21, "Seg_order": 2, "Max_DEM": 480.4871521, "Min_DEM": 464.516113281, "DA_Obs": 0.0, "DA_error": 0.0, "Obs_NM": null, "SRC_obs": null, "centroid_x": -80.413366444496233, "centroid_y": 43.987305206666214, "DA_Chn_L": 14350.953358000001, "DA_Slope": 0.252501288647, "DA_Chn_Slp": 0.0098325462565299997, "outletLat": 43.97405217, "outletLng": -80.360956601200002, "Region": "SW", "Sub_Reg": "02G", "rvhName": "sub90011484" }, "geometry": { "type": "MultiLineString", "coordinates": [ [ [ -80.402865379681899, 43.963058413687548 ], [ -80.401876708291852, 43.96369079773801 ], [ -80.401854074963381, 43.963960097461481 ], [ -80.401458597966851, 43.964213048624799 ], [ -80.401413326544642, 43.964751648348404 ], [ -80.401017841797923, 43.965004598112934 ], [ -80.40099520370407, 43.965273898113026 ], [ -80.401695635432674, 43.965845198039517 ], [ -80.401627729438218, 43.966653099633611 ], [ -80.401977955593054, 43.966938748531952 ], [ -80.401582457662357, 43.967191701145012 ], [ -80.401559821440557, 43.967461002035279 ], [ -80.400768810522294, 43.967966903049927 ], [ -80.400723529214503, 43.968505505113917 ], [ -80.399909850401286, 43.969280701691282 ], [ -80.399887205092341, 43.96955000295457 ], [ -80.400237440693445, 43.969835658737402 ], [ -80.400192152615361, 43.970374261884643 ], [ -80.399005548698227, 43.971133098724678 ], [ -80.398982898176996, 43.971402400443225 ], [ -80.398587354181728, 43.971655343247093 ], [ -80.398564701388281, 43.971924645058721 ], [ -80.398169151690055, 43.972177586459502 ], [ -80.39779625523083, 43.972161224635201 ], [ -80.393840541260872, 43.974690547176586 ], [ -80.392721805103534, 43.974641411458691 ], [ -80.392371577971772, 43.97435572882106 ], [ -80.392439630056998, 43.973547825106593 ], [ -80.391739196377031, 43.972976457701535 ], [ -80.390993396648057, 43.972943687029677 ], [ -80.389920090351907, 43.972355920631685 ], [ -80.389547195145127, 43.972339529511309 ], [ -80.388846807092349, 43.971768143714066 ], [ -80.388101025548153, 43.971735352552294 ], [ -80.386350139848304, 43.970306857110636 ], [ -80.386440987230586, 43.969229663226834 ], [ -80.386836569796117, 43.968976766977541 ], [ -80.386904696838542, 43.968168872515733 ], [ -80.385854241582052, 43.967311770452532 ], [ -80.385876954958803, 43.967042473006188 ], [ -80.385176672924118, 43.966471066677244 ], [ -80.384803819200101, 43.966454658839126 ], [ -80.383403307160364, 43.965311828499942 ], [ -80.383007735211805, 43.965564710606188 ], [ -80.382657616779966, 43.96527899895564 ], [ -80.382725800857656, 43.964471111103599 ], [ -80.38237569088632, 43.964185398920741 ], [ -80.382398420067929, 43.963916103325744 ], [ -80.381698214287226, 43.96334467612995 ], [ -80.381720946450557, 43.963075380977173 ], [ -80.381020758483459, 43.962503949890703 ], [ -80.381111697721607, 43.961426771587384 ], [ -80.380761615625858, 43.961141055158215 ], [ -80.380784351478965, 43.960871760983146 ], [ -80.380434274637423, 43.960586043669615 ], [ -80.378010999024866, 43.960479260426439 ] ], [ [ -80.378010999024866, 43.960479260426439 ], [ -80.377824593599854, 43.960471044014753 ] ], [ [ -80.377824593599854, 43.960471044014753 ], [ -80.377429030855112, 43.960723903505205 ], [ -80.376310594673001, 43.960674593856879 ], [ -80.375237686316083, 43.960086686813568 ], [ -80.374864879025878, 43.960070243820091 ], [ -80.373282563068258, 43.961081628206138 ], [ -80.373191470450834, 43.962158799236974 ], [ -80.372795874132834, 43.962411641828567 ], [ -80.372773098368825, 43.962680934813783 ], [ -80.37198189067712, 43.963186615781943 ], [ -80.371959110589287, 43.963455908863047 ], [ -80.37037664318126, 43.964467253925754 ], [ -80.370003807537159, 43.964450793577143 ], [ -80.36960817995282, 43.964703624914527 ], [ -80.369585387564371, 43.964972918013729 ], [ -80.369189754277613, 43.96522574794681 ], [ -80.370239908747166, 43.966083014368785 ], [ -80.370194328809831, 43.966621601900577 ], [ -80.369798686425497, 43.966874434671986 ], [ -80.369707515660224, 43.967951610823206 ], [ -80.37040765523156, 43.968523121411543 ], [ -80.370362074913132, 43.96906171073033 ], [ -80.37106223550451, 43.969633217781478 ], [ -80.370879930904522, 43.971787581461335 ], [ -80.370682093092583, 43.971914000166116 ] ], [ [ -80.377649563721675, 43.960328180631038 ], [ -80.377824593599854, 43.960471044014753 ] ], [ [ -80.370659302983825, 43.972183296030622 ], [ -80.370484254367355, 43.972040418519001 ] ], [ [ -80.370682093092583, 43.971914000166116 ], [ -80.370484254367355, 43.972040418519001 ] ], [ [ -80.370484254367355, 43.972040418519001 ], [ -80.369319999898977, 43.972529625461419 ], [ -80.367455551089478, 43.972447290854909 ], [ -80.36705985397839, 43.972700115226743 ], [ -80.366314072819748, 43.972667169296905 ], [ -80.365963996078619, 43.972381399342318 ], [ -80.365591107886715, 43.972364923154835 ], [ -80.365195402764272, 43.972617740474057 ], [ -80.363330957159661, 43.972535332627842 ], [ -80.360956601642769, 43.974052164660066 ], [ -80.360770152584664, 43.974043917823451 ] ] ] } },
{ "type": "Feature", "properties": { "SubId": 90012669, "DowSubId": 90013181, "RivSlope": 0.0016450143688290001, "RivLength": 21729.680095, "BasSlope": 1.034645403296435, "BasAspect": 193.09461742001704, "BasArea": 76397346.138552994, "BkfWidth": 20.471605912899999, "BkfDepth": 0.50542348021799999, "Lake_Cat": 0, "HyLakeId": 0, "LakeVol": 0.0, "LakeDepth": 0.0, "LakeArea": 0.0, "Laketype": 0, "Has_POI": 0, "MeanElev": 499.6341650672955, "FloodP_n": 0.050000000745099998, "Q_Mean": 6.449987114829125, "Ch_n": 0.029392269029531001, "DrainArea": 144250023.278382, "Strahler": 1, "Seg_ID": 1, "Seg_order": 2, "Max_DEM": 499.31448364300002, "Min_DEM": 476.16101074199997, "DA_Obs": 0.0, "DA_error": 0.0, "Obs_NM": null, "SRC_obs": null, "centroid_x": -80.382436619764817, "centroid_y": 44.109201585526925, "DA_Chn_L": 33724.881814, "DA_Slope": 0.33067887276000002, "DA_Chn_Slp": 0.010074246710499999, "outletLat": 44.030231258500002, "outletLng": -80.378293441500006, "Region": "SW", "Sub_Reg": "02G", "rvhName": "sub90012669" }, "geometry": { "type": "MultiLineString", "coordinates": [ [ [ -80.362775908874767, 44.140252334753313 ], [ -80.36297437486283, 44.140125903711144 ], [ -80.363043068484629, 44.139317847742475 ], [ -80.363439991513189, 44.139064984594135 ], [ -80.364188043403345, 44.139097957947683 ], [ -80.366172587295225, 44.137833606822078 ], [ -80.366523725765177, 44.138119436600242 ], [ -80.366920623968767, 44.137866560714201 ], [ -80.367080763064635, 44.135981097343986 ], [ -80.366729635426992, 44.135695270191547 ], [ -80.366798267919151, 44.134887216274393 ], [ -80.36719514136405, 44.134634340381275 ], [ -80.367218016347081, 44.134364989247544 ], [ -80.368408608443374, 44.133606353074711 ], [ -80.368477213472033, 44.132798300186657 ], [ -80.36927091078492, 44.132292535658998 ], [ -80.370392855108292, 44.132341931148893 ], [ -80.371446241881628, 44.1331993691403 ], [ -80.371423388237815, 44.133468720797183 ], [ -80.3721256676846, 44.134040341130301 ], [ -80.372499661727971, 44.134056797518589 ], [ -80.372850809026502, 44.134342604841649 ], [ -80.373224805358035, 44.134359058660728 ], [ -80.375010555752638, 44.13322099776456 ] ], [ [ -80.375384545054658, 44.133237443889755 ], [ -80.375208967869568, 44.133094544785102 ] ], [ [ -80.375010555752638, 44.13322099776456 ], [ -80.375208967869568, 44.133094544785102 ] ], [ [ -80.375208967869568, 44.133094544785102 ], [ -80.374857816255457, 44.132808745774625 ], [ -80.37492632487394, 44.132000689498668 ], [ -80.375719950878604, 44.131494876870079 ], [ -80.376093928575614, 44.131511320440048 ], [ -80.377681130041381, 44.130499672546513 ], [ -80.378032281583145, 44.13078546131112 ], [ -80.379154202865664, 44.130834763355523 ], [ -80.379856529346711, 44.131406330232181 ], [ -80.379810906281122, 44.131945036064181 ], [ -80.381917993266498, 44.133659713127791 ], [ -80.382665982259809, 44.13369255500244 ], [ -80.383062773551771, 44.13343961969148 ], [ -80.383153957135519, 44.132362203529674 ], [ -80.383947512196784, 44.131856328662415 ], [ -80.384321494843121, 44.131872743018292 ], [ -80.384672689954741, 44.132158510130459 ], [ -80.385069460810115, 44.131905567746223 ], [ -80.385115031980177, 44.131366859663864 ], [ -80.385511795036663, 44.13111391586488 ], [ -80.385862991496609, 44.131399678734148 ], [ -80.386259751327785, 44.131146732106373 ], [ -80.386305310125636, 44.130608024023481 ], [ -80.385602926432128, 44.130036500736495 ], [ -80.385228955972792, 44.130020090969836 ], [ -80.384526591101263, 44.129448560926043 ], [ -80.384549378450671, 44.129179207792276 ], [ -80.38384703150173, 44.128607673820603 ], [ -80.383473071352086, 44.128591257847113 ], [ -80.382419584671624, 44.127733945152912 ], [ -80.382465178494016, 44.127195241047367 ], [ -80.382861923520707, 44.126942308562072 ], [ -80.382884718032841, 44.12667295663892 ], [ -80.383281457323676, 44.126420022739183 ], [ -80.383304249549226, 44.126150670902483 ], [ -80.384097712985437, 44.125644798859952 ], [ -80.38339541620384, 44.125073264420521 ], [ -80.382273609422057, 44.12502400792431 ], [ -80.381922472727084, 44.124738235378643 ], [ -80.381945270951618, 44.124468884407058 ], [ -80.381243011806916, 44.123897336457517 ], [ -80.381265813030637, 44.123627985918617 ], [ -80.380914690580752, 44.123342210514814 ], [ -80.380983097738607, 44.122534159936599 ], [ -80.382173240832486, 44.121775379450547 ], [ -80.38219603658419, 44.121506029430954 ], [ -80.383386140433529, 44.120747236217497 ], [ -80.381981702367355, 44.119604160633862 ], [ -80.382378394506048, 44.119351232391409 ], [ -80.382401188234851, 44.119081883151203 ], [ -80.383987911814657, 44.118070156041675 ], [ -80.384010697074018, 44.117800806888596 ], [ -80.384407366725583, 44.117547871576456 ], [ -80.384430149699199, 44.11727852251019 ], [ -80.385620130434091, 44.116519708091168 ], [ -80.386718994335524, 44.116838277728284 ], [ -80.388305572799069, 44.115826488407876 ], [ -80.388328335837343, 44.115557139083798 ], [ -80.387648890504636, 44.114716291248357 ], [ -80.388045520919661, 44.114463343213053 ], [ -80.388091048199911, 44.113924645691682 ], [ -80.38848767082122, 44.113671696243408 ], [ -80.388601474791557, 44.112324953959792 ], [ -80.387525456086991, 44.1117370579395 ], [ -80.387639279743595, 44.110390319989662 ], [ -80.388035878801901, 44.110137373373661 ], [ -80.388195208073327, 44.108251943893031 ], [ -80.388988366331091, 44.107746046426819 ], [ -80.39004157071237, 44.108603271766121 ], [ -80.390834716975448, 44.108097360161764 ], [ -80.390857464327425, 44.107828012922575 ], [ -80.390155325830349, 44.107256536433944 ], [ -80.390178076181101, 44.106987189628136 ], [ -80.389827014051292, 44.106701449955629 ], [ -80.389849765789194, 44.106432103409993 ], [ -80.388796606262332, 44.10557487850685 ], [ -80.387675194886427, 44.10552568077393 ], [ -80.387324155233358, 44.105239933282007 ], [ -80.38657655289137, 44.105207125675541 ], [ -80.386225521029516, 44.104921374634614 ], [ -80.3850358012687, 44.105680184771366 ], [ -80.38466199766107, 44.105663773495351 ], [ -80.384265415453939, 44.105916705967282 ], [ -80.383144001145155, 44.105867459934537 ], [ -80.382441968508545, 44.105295933411476 ], [ -80.382533117372091, 44.104218556057731 ], [ -80.382182113004134, 44.103932791889086 ], [ -80.382227689309843, 44.103394104080671 ], [ -80.381525698029975, 44.102822573235755 ], [ -80.380404349684369, 44.102773298205598 ], [ -80.38005336573093, 44.102487527460646 ], [ -80.379679585458589, 44.102471098555696 ], [ -80.378275694592332, 44.101327999943472 ], [ -80.377528151202853, 44.101295128227825 ], [ -80.37682623603375, 44.100723567558077 ], [ -80.376894675328728, 44.099915542741961 ], [ -80.377291248098615, 44.099662639966432 ], [ -80.377314058687205, 44.099393298535418 ], [ -80.376238416016818, 44.098805296765462 ], [ -80.375864662075557, 44.09878885438836 ], [ -80.375513727448748, 44.098503069947455 ], [ -80.375139975792379, 44.09848662500292 ], [ -80.374087200112797, 44.097629261559071 ], [ -80.374110025642779, 44.097359921517125 ], [ -80.373759109366361, 44.097074131742993 ], [ -80.373850415676486, 44.095996773140705 ], [ -80.374246974098327, 44.095743883093618 ], [ -80.374269798053561, 44.095474543661112 ], [ -80.375062899768338, 44.094968759328061 ], [ -80.37513135792581, 44.094160741555605 ], [ -80.375947247420513, 44.093385612490216 ], [ -80.375596347054042, 44.09309983028357 ], [ -80.375630571272353, 44.092695822084117 ] ], [ [ -80.375630571272353, 44.092695822084117 ], [ -80.375641979232697, 44.09256115272786 ] ], [ [ -80.37544371525351, 44.092687600045807 ], [ -80.375641979232697, 44.09256115272786 ] ], [ [ -80.375641979232697, 44.09256115272786 ], [ -80.376038504438995, 44.092308257032201 ], [ -80.376740303301261, 44.092879816855799 ], [ -80.37786144537003, 44.092929130307397 ], [ -80.378654476913468, 44.092423320539872 ], [ -80.378722878788793, 44.091615303042403 ], [ -80.378371975275329, 44.091329530734015 ], [ -80.378394777060933, 44.091060191916306 ], [ -80.378791278641785, 44.090807286329493 ], [ -80.378836877420298, 44.090268608956798 ], [ -80.378485981956217, 44.089982837517326 ], [ -80.378112287664621, 44.089966403306569 ], [ -80.377715789041915, 44.090219306064746 ], [ -80.377670179256029, 44.090757982917822 ], [ -80.377273672845618, 44.091010884264271 ], [ -80.37689997189004, 44.090994445726565 ], [ -80.376549081893032, 44.090708667564563 ], [ -80.376594702686205, 44.090169991231242 ], [ -80.375892940138399, 44.089598432403456 ], [ -80.375938566471135, 44.089059757114299 ], [ -80.375236825037646, 44.088488194716746 ], [ -80.375259641085947, 44.088218857550736 ], [ -80.372803672900147, 44.086218356791761 ], [ -80.372826499989515, 44.085949020930514 ], [ -80.372475663675075, 44.085663231017392 ], [ -80.372521320397482, 44.085124559904678 ], [ -80.371842496452658, 44.084283642499067 ], [ -80.371888158261953, 44.083744972606155 ], [ -80.371537340998188, 44.083459180365246 ], [ -80.371765652637151, 44.080765837880939 ], [ -80.372162110221268, 44.080512960584471 ], [ -80.372299074054354, 44.078896959291505 ], [ -80.371223888579053, 44.078308921580231 ], [ -80.370850276266609, 44.078292461822926 ], [ -80.370499499416098, 44.078006668104685 ], [ -80.369752279583508, 44.077973742131078 ], [ -80.36905074511921, 44.077402146538965 ], [ -80.369096428687158, 44.076863482576151 ], [ -80.36991214561327, 44.076088417352651 ], [ -80.369934982717481, 44.075819085591256 ], [ -80.370331412898182, 44.075566216786619 ], [ -80.370354247718907, 44.075296885113417 ], [ -80.369652741308343, 44.074725295484974 ], [ -80.369279153957308, 44.074708830223109 ], [ -80.368882725126667, 44.07496169478604 ], [ -80.368509136392248, 44.074945226784614 ], [ -80.36815839325439, 44.07465942647913 ], [ -80.368181238400823, 44.074390095588953 ], [ -80.369370511191747, 44.073631506146171 ], [ -80.369416188458914, 44.073092844632747 ], [ -80.370605415899234, 44.072334242483073 ], [ -80.370628248020481, 44.072064911859997 ], [ -80.371024647775826, 44.071812041652969 ], [ -80.370346012121743, 44.070971128848548 ], [ -80.370574330298041, 44.068277831804345 ], [ -80.372159798505365, 44.067266348203766 ], [ -80.372251086553277, 44.066189031853931 ], [ -80.373440124524109, 44.06543040433916 ], [ -80.373462939801144, 44.06516107547381 ], [ -80.373859276402428, 44.064908196812816 ], [ -80.373882089397185, 44.06463886803617 ], [ -80.373531384283837, 44.06435308940393 ], [ -80.375116684005619, 44.063341566301688 ], [ -80.375139490153998, 44.063072237791367 ], [ -80.374087396238124, 44.062214912993653 ], [ -80.374133017508925, 44.061676257282684 ], [ -80.373782330083415, 44.061390480568946 ], [ -80.373805141989692, 44.061121153019535 ], [ -80.37420144773003, 44.060868274374421 ], [ -80.374948436521535, 44.060901168029318 ], [ -80.3751465864094, 44.060774726764699 ] ], [ [ -80.375344735380978, 44.060648285147181 ], [ -80.374643364714956, 44.060076739486682 ], [ -80.374269875929102, 44.060060292256182 ], [ -80.373919198150759, 44.059774516589172 ], [ -80.374315493605181, 44.059521637949658 ], [ -80.374361110382651, 44.058982983994362 ], [ -80.373309107335444, 44.058125655892539 ], [ -80.373331920210347, 44.057856329570122 ], [ -80.374497955323633, 44.057367024236221 ], [ -80.374520762027586, 44.057097697917321 ], [ -80.375313304916048, 44.056591936424944 ], [ -80.375336107281626, 44.056322610196318 ], [ -80.374985447897615, 44.056036839450883 ], [ -80.375076661544682, 44.054959536113259 ], [ -80.37547291675908, 44.054706654670028 ], [ -80.375846369347727, 44.05472309751557 ], [ -80.377431347132301, 44.053711551980079 ], [ -80.377782004387541, 44.05399731371908 ], [ -80.378155452826746, 44.054013748349419 ], [ -80.378947917416184, 44.053507961462067 ], [ -80.379649248827576, 44.054079473611857 ], [ -80.379253017467448, 44.054332370588725 ], [ -80.379954362638458, 44.054903881306807 ], [ -80.380327817920403, 44.054920308241464 ], [ -80.380724048570059, 44.054667407024496 ], [ -80.380373371647224, 44.054381654851056 ], [ -80.38076959818396, 44.054128753636832 ], [ -80.380792372654454, 44.053859427074876 ], [ -80.379389706242065, 44.052716414085886 ], [ -80.379785925263619, 44.052463517117282 ], [ -80.379808703884436, 44.052194191342672 ], [ -80.379458047600579, 44.051908437021787 ], [ -80.378711178912909, 44.051875575775782 ], [ -80.378009885562349, 44.051304058982851 ], [ -80.376889596551905, 44.051254749734731 ], [ -80.376493372895339, 44.051507635398451 ], [ -80.375746511462467, 44.05147475311243 ], [ -80.375395881013887, 44.051188985509214 ], [ -80.375418680720443, 44.050919661125725 ], [ -80.375814905086443, 44.050666779702006 ], [ -80.375837702512072, 44.05039745540784 ], [ -80.375487078492938, 44.050111688503129 ], [ -80.376279511223075, 44.049605924252823 ], [ -80.377026347458724, 44.049638802674515 ], [ -80.377422555113654, 44.04938591560807 ], [ -80.377071929298765, 44.049100154358463 ], [ -80.377117510241064, 44.048561506394499 ], [ -80.377909905437917, 44.048055730862075 ], [ -80.377932691460188, 44.04778640701501 ], [ -80.378328881507386, 44.047533517133921 ], [ -80.378374448766692, 44.046994869706928 ], [ -80.378770631038535, 44.046741978417977 ], [ -80.379121250611746, 44.047027733139302 ], [ -80.379494651870758, 44.047044162866911 ], [ -80.37989082932063, 44.046791267341142 ], [ -80.379936380580915, 44.046252619749986 ], [ -80.379585761717792, 44.04596686803086 ], [ -80.379654091748023, 44.045158897828749 ], [ -80.380050254806861, 44.044906002313695 ], [ -80.380141350151007, 44.043828709950674 ], [ -80.382914331442819, 44.042058401894003 ], [ -80.382982607430264, 44.041250433581567 ], [ -80.381580218546333, 44.040107468288703 ], [ -80.381602983189126, 44.039838146393137 ], [ -80.383979621370401, 44.038320718452759 ], [ -80.382905107783742, 44.037732830640671 ], [ -80.38299613496963, 44.036655545726568 ], [ -80.383392221006076, 44.036402640380615 ], [ -80.382691077092375, 44.035831166153685 ], [ -80.382736591658599, 44.035292524929112 ], [ -80.38238602840822, 44.035006786569085 ], [ -80.382454303397623, 44.034198825919056 ], [ -80.384434620560967, 44.032934299289998 ], [ -80.385836885209883, 44.034077215973277 ], [ -80.386628990027035, 44.03357138414222 ], [ -80.386674463945411, 44.033032742778424 ], [ -80.388258613204471, 44.032021062213744 ], [ -80.388269977435144, 44.03188640193197 ] ], [ [ -80.375531481915274, 44.060656507025783 ], [ -80.375344735380978, 44.060648285147181 ] ], [ [ -80.3751465864094, 44.060774726764699 ], [ -80.375344735380978, 44.060648285147181 ] ], [ [ -80.388467991459791, 44.031759940275883 ], [ -80.388281341609854, 44.031751741672267 ] ], [ [ -80.388269977435144, 44.03188640193197 ], [ -80.388281341609854, 44.031751741672267 ] ], [ [ -80.388281341609854, 44.031751741672267 ], [ -80.387580206231632, 44.031180303472347 ], [ -80.387184177358606, 44.031433222898734 ], [ -80.386437583522323, 44.031400417391829 ], [ -80.385736471902291, 44.030828967152544 ], [ -80.384989887179344, 44.030796151388913 ], [ -80.384593849113358, 44.031049060931146 ], [ -80.383473968888254, 44.030999823110633 ], [ -80.383123429290549, 44.030714088787121 ], [ -80.381630267011261, 44.030648414850411 ], [ -80.38127973929312, 44.030362674507877 ], [ -80.380906451338049, 44.030346251471727 ], [ -80.380510397654405, 44.030599145482363 ], [ -80.379763819203703, 44.030566292610565 ], [ -80.379017241649635, 44.030533434437672 ], [ -80.378666728314244, 44.030247685424008 ], [ -80.378106798819275, 44.030223036457436 ] ] ] } },
{ "type": "Feature", "properties": { "SubId": 90013181, "DowSubId": 90013285, "RivSlope": 0.0037279634893370001, "RivLength": 2943.018647, "BasSlope": 1.094681596866276, "BasAspect": 190.07315509573905, "BasArea": 9421268.4242400005, "BkfWidth": 24.407282201499999, "BkfDepth": 0.56166313517499999, "Lake_Cat": 0, "HyLakeId": 0, "LakeVol": 0.0, "LakeDepth": 0.0, "LakeArea": 0.0, "Laketype": 0, "Has_POI": 1, "MeanElev": 485.20175993858794, "FloodP_n": 0.050689610426052002, "Q_Mean": 11.245282739549616, "Ch_n": 0.045233781647064999, "DrainArea": 207359295.61656702, "Strahler": 2, "Seg_ID": 29, "Seg_order": 1, "Max_DEM": 480.465667725, "Min_DEM": 473.87606811500001, "DA_Obs": 0.0, "DA_error": 0.0, "Obs_NM": "02GA-17", "SRC_obs": "OIHQUAT", "centroid_x": -80.396327380010106, "centroid_y": 44.024504281487459, "DA_Chn_L": 36667.900460999997, "DA_Slope": 0.249230754001, "DA_Chn_Slp": 0.0168936207586, "outletLat": 44.011625483499998, "outletLng": -80.385484667900002, "Region": "SW", "Sub_Reg": "02G", "rvhName": "02GA-17" }, "geometry": { "type": "MultiLineString", "coordinates": [ [ [ -80.377920155766404, 44.030214819472597 ], [ -80.37686865005476, 44.029357558617413 ], [ -80.376495370281461, 44.029341119937854 ], [ -80.375794388887783, 44.028769604905719 ], [ -80.375839965470476, 44.028230971562159 ], [ -80.376632078064858, 44.027725218867772 ], [ -80.376677645531714, 44.027186585885296 ], [ -80.377073692228691, 44.026933707426863 ], [ -80.377301495562477, 44.024240547841913 ], [ -80.376623353399069, 44.023399726818724 ], [ -80.376691698989077, 44.022591781985611 ], [ -80.380232924484218, 44.02058515294744 ], [ -80.38030121326905, 44.019777208699907 ], [ -80.380697189600824, 44.019524319003388 ], [ -80.380765470207848, 44.018716375559691 ], [ -80.381161436718628, 44.018463484460064 ], [ -80.381184194419205, 44.018194170158218 ], [ -80.38316396181294, 44.016929693530869 ], [ -80.38391035628041, 44.016962521677122 ], [ -80.384108326382346, 44.016836070665256 ] ], [ [ -80.378106798819275, 44.030223036457436 ], [ -80.377920155766404, 44.030214819472597 ] ], [ [ -80.37790876641121, 44.030349478344611 ], [ -80.377920155766404, 44.030214819472597 ] ], [ [ -80.384306295569459, 44.016709619301089 ], [ -80.384702231199199, 44.016456715515865 ], [ -80.384724970641486, 44.016187401145011 ], [ -80.38402407178809, 44.015615950687526 ], [ -80.383650883590519, 44.015599537709242 ], [ -80.383300441705984, 44.015313809647189 ], [ -80.382904507866954, 44.01556670777795 ], [ -80.382531320340973, 44.015550290824962 ], [ -80.382180884616744, 44.015264559047701 ], [ -80.382317389381853, 44.01364867991456 ], [ -80.383109231076403, 44.013142887920758 ], [ -80.383482402360869, 44.013159302770497 ], [ -80.384647394506118, 44.012669913020218 ], [ -80.385020563026984, 44.012686322397691 ], [ -80.385812365817614, 44.012180510664095 ], [ -80.385835098020877, 44.011911197540236 ], [ -80.385298087607922, 44.011617274435224 ] ], [ [ -80.384481523148921, 44.016852482045273 ], [ -80.384306295569459, 44.016709619301089 ] ], [ [ -80.384108326382346, 44.016836070665256 ], [ -80.384306295569459, 44.016709619301089 ] ] ] } },
{ "type": "Feature", "properties": { "SubId": 90013285, "DowSubId": 90013481, "RivSlope": 0.002518083713463, "RivLength": 6202.751485, "BasSlope": 0.99576288710201399, "BasAspect": 194.9722642519381, "BasArea": 52598534.398262009, "BkfWidth": 27.232747702600001, "BkfDepth": 0.59981751581800002, "Lake_Cat": 0, "HyLakeId": 0, "LakeVol": 0.0, "LakeDepth": 0.0, "LakeArea": 0.0, "Laketype": 0, "Has_POI": 0, "MeanElev": 488.99968136978214, "FloodP_n": 0.050562824872921998, "Q_Mean": 12.331765476547872, "Ch_n": 0.036689730849980999, "DrainArea": 259957830.01482904, "Strahler": 2, "Seg_ID": 29, "Seg_order": 2, "Max_DEM": 476.94546508799999, "Min_DEM": 464.546051025, "DA_Obs": 0.0, "DA_error": 0.0, "Obs_NM": null, "SRC_obs": null, "centroid_x": -80.331792943542411, "centroid_y": 44.027821306533987, "DA_Chn_L": 42855.458893000003, "DA_Slope": 0.22970627766000001, "DA_Chn_Slp": 0.021158809679, "outletLat": 43.974321464500001, "outletLng": -80.360933762399995, "Region": "SW", "Sub_Reg": "02G", "rvhName": "sub90013285" }, "geometry": { "type": "MultiLineString", "coordinates": [ [ [ -80.385298087607922, 44.011617274435224 ], [ -80.384574503359445, 44.01131514372814 ] ], [ [ -80.384574503359445, 44.01131514372814 ], [ -80.384387923812199, 44.011306938427538 ] ], [ [ -80.384585872354734, 44.011180487439574 ], [ -80.384387923812199, 44.011306938427538 ] ], [ [ -80.384387923812199, 44.011306938427538 ], [ -80.383291192040829, 44.010988387416447 ], [ -80.38221722241282, 44.01040051327481 ], [ -80.381470918444904, 44.010367673382021 ], [ -80.380283187930615, 44.01112633802142 ], [ -80.379163719210695, 44.011077055544838 ], [ -80.377998711941473, 44.011566383493417 ], [ -80.377252394609002, 44.011533513590194 ], [ -80.37620125824192, 44.010676266709467 ], [ -80.375828106071992, 44.010659826056205 ], [ -80.375477736653195, 44.010374073732308 ], [ -80.374731437092663, 44.010341185975292 ], [ -80.37438107543899, 44.010055430112487 ], [ -80.374007928048471, 44.010038983008783 ], [ -80.373307219822735, 44.009467465619139 ], [ -80.373375596964308, 44.008659537473228 ], [ -80.374167449105087, 44.008153816121812 ], [ -80.374190236930474, 44.007884506921854 ], [ -80.374586155460548, 44.007631644134612 ], [ -80.37467729630707, 44.006554408232063 ], [ -80.373999413559147, 44.005713589478866 ], [ -80.374044988607409, 44.005174972940665 ], [ -80.374440888210955, 44.004922111587 ], [ -80.374486458256314, 44.004383495408916 ], [ -80.37527823827881, 44.003877768483747 ], [ -80.375301018859361, 44.003608460532668 ], [ -80.375696901331494, 44.003355594959011 ], [ -80.375833567791148, 44.001739749134181 ], [ -80.376229434289328, 44.001486882165729 ], [ -80.376411627264886, 43.999332426067568 ], [ -80.376807473685346, 43.99907955770955 ], [ -80.376853015583649, 43.998540944579958 ], [ -80.37724885424241, 43.998288074818198 ], [ -80.377271622803107, 43.998018768389414 ], [ -80.378459110681945, 43.997260150660253 ], [ -80.378504634817602, 43.996721538084742 ], [ -80.378900452692776, 43.996468662696387 ], [ -80.378923212372513, 43.996199356544757 ], [ -80.378572919341536, 43.995913619889564 ], [ -80.378686722402975, 43.994567091346198 ], [ -80.379501077499782, 43.9937920337657 ], [ -80.379592098607318, 43.992714812912439 ], [ -80.378891553807506, 43.992143345583223 ], [ -80.377795237880363, 43.991824745115544 ], [ -80.377094723223607, 43.991253266463673 ], [ -80.375998435574814, 43.990934647611773 ], [ -80.374924937598024, 43.990346714209977 ], [ -80.374178911345624, 43.990313823381008 ], [ -80.373828680727598, 43.990028073088752 ], [ -80.373455669989454, 43.990011624450368 ], [ -80.372405006224639, 43.989154363490769 ], [ -80.372427794811244, 43.988885061302796 ], [ -80.37207758247088, 43.988599305702216 ], [ -80.372100372436847, 43.988330003779367 ], [ -80.37175016535538, 43.988044247293111 ], [ -80.371795747821736, 43.987505644066971 ], [ -80.371445547602477, 43.987219886871031 ], [ -80.371491132378921, 43.986681284353757 ], [ -80.371140939021629, 43.986395526448241 ], [ -80.371163732676905, 43.986126225499454 ], [ -80.370113179345296, 43.985268945942266 ], [ -80.369740202143007, 43.985252484211948 ], [ -80.366938903819687, 43.982966348796445 ], [ -80.366961716712439, 43.98269704996008 ], [ -80.366611572471015, 43.982411278433872 ], [ -80.366634386742248, 43.982141979862959 ], [ -80.365934112428548, 43.981570433979513 ], [ -80.365188211143206, 43.981537479673939 ], [ -80.364605961896302, 43.981782058384169 ] ], [ [ -80.364605961896302, 43.981782058384169 ], [ -80.364419485969989, 43.981773817943889 ] ], [ [ -80.364594549876088, 43.981916707375078 ], [ -80.364419485969989, 43.981773817943889 ] ], [ [ -80.364419485969989, 43.981773817943889 ], [ -80.36371923948164, 43.981202257566729 ], [ -80.363787722781112, 43.980394365277661 ], [ -80.363437609826221, 43.980108584026262 ], [ -80.363064669778396, 43.980092098701888 ], [ -80.362014358993378, 43.979234744871356 ], [ -80.362060029877867, 43.978696152042389 ], [ -80.361709936795776, 43.97841036566313 ], [ -80.361846953673435, 43.976794590379768 ], [ -80.361496873859082, 43.976508803997568 ], [ -80.361633892265303, 43.974893032991979 ], [ -80.360758732746447, 43.97417856504142 ] ] ] } },
{ "type": "Feature", "properties": { "SubId": 90013481, "DowSubId": 90013907, "RivSlope": 0.0083248911035200008, "RivLength": 983.232409, "BasSlope": 1.9726200627299999, "BasAspect": 161.055353083, "BasArea": 619178.86984099995, "BkfWidth": 31.838185617099999, "BkfDepth": 0.658769149158, "Lake_Cat": 0, "HyLakeId": 0, "LakeVol": 0.0, "LakeDepth": 0.0, "LakeArea": 0.0, "Laketype": 0, "Has_POI": 1, "MeanElev": 472.77901189599999, "FloodP_n": 0.068610260146600002, "Q_Mean": 19.5538206672, "Ch_n": 0.068610260146600002, "DrainArea": 358877455.04922301, "Strahler": 3, "Seg_ID": 30, "Seg_order": 1, "Max_DEM": 470.655517578, "Min_DEM": 462.470214844, "DA_Obs": 0.0, "DA_error": 0.0, "Obs_NM": "16018409002", "SRC_obs": "PWQMN", "centroid_x": -80.358297114825788, "centroid_y": 43.971059278277131, "DA_Chn_L": 43838.691302, "DA_Slope": 0.169794310802, "DA_Chn_Slp": 0.028822428073700002, "outletLat": 43.967292071800003, "outletLng": -80.354793323799996, "Region": "SW", "Sub_Reg": "02G", "rvhName": "16018409002" }, "geometry": { "type": "MultiLineString", "coordinates": [ [ [ -80.360758732746447, 43.97417856504142 ], [ -80.360583703582719, 43.974035670655915 ] ], [ [ -80.360770152584664, 43.974043917823451 ], [ -80.360583703582719, 43.974035670655915 ] ], [ [ -80.360583703582719, 43.974035670655915 ], [ -80.359906439686327, 43.973194796490112 ], [ -80.36002065444336, 43.971848327969973 ], [ -80.357920477220418, 43.970133568292781 ], [ -80.357943329108608, 43.969864275916159 ], [ -80.356193289882341, 43.968435281244865 ], [ -80.356216149553632, 43.9681659898405 ], [ -80.355166174652794, 43.967308580846343 ], [ -80.354606899128484, 43.96728380871992 ] ] ] } },
{ "type": "Feature", "properties": { "SubId": 90013907, "DowSubId": 90013941, "RivSlope": 0.0034021122001299999, "RivLength": 11838.034768, "BasSlope": 1.2621176695835059, "BasAspect": 186.48511788323825, "BasArea": 72352041.197120994, "BkfWidth": 34.8013816558, "BkfDepth": 0.69489975422299999, "Lake_Cat": 0, "HyLakeId": 0, "LakeVol": 0.0, "LakeDepth": 0.0, "LakeArea": 0.0, "Laketype": 0, "Has_POI": 1, "MeanElev": 480.00412373488689, "FloodP_n": 0.052811356680193003, "Q_Mean": 21.928489396448935, "Ch_n": 0.041998579473593999, "DrainArea": 431229496.24634397, "Strahler": 3, "Seg_ID": 30, "Seg_order": 2, "Max_DEM": 467.92926025399998, "Min_DEM": 449.09750366200001, "DA_Obs": 0.0, "DA_error": 0.0, "Obs_NM": "02GA-13", "SRC_obs": "OIHQUAT", "centroid_x": -80.322537254529252, "centroid_y": 43.949174580372294, "DA_Chn_L": 55676.72607, "DA_Slope": 0.23202817027100001, "DA_Chn_Slp": 0.049019560561599999, "outletLat": 43.896032064300002, "outletLng": -80.314488933700005, "Region": "SW", "Sub_Reg": "02G", "rvhName": "02GA-13" }, "geometry": { "type": "MultiLineString", "coordinates": [ [ [ -80.354606899128484, 43.96728380871992 ], [ -80.353301924872625, 43.96722599551029 ], [ -80.352776965131739, 43.966797278161501 ] ], [ [ -80.352776965131739, 43.966797278161501 ], [ -80.352601980377585, 43.96665437184862 ] ], [ [ -80.352590542001224, 43.966789016880568 ], [ -80.352601980377585, 43.96665437184862 ] ], [ [ -80.352601980377585, 43.96665437184862 ], [ -80.352252013608449, 43.96636855842798 ], [ -80.352647733320623, 43.966115791944887 ], [ -80.352693485363929, 43.965577212399687 ], [ -80.353089197321978, 43.96532444451384 ], [ -80.353134944363717, 43.964785865332459 ], [ -80.352457909176877, 43.963944953275067 ], [ -80.352853610430586, 43.963692186815514 ], [ -80.352503661273431, 43.963406375338486 ], [ -80.352549412470296, 43.96286779776063 ], [ -80.352199470166838, 43.962581985577344 ], [ -80.352245223665932, 43.962043408711772 ], [ -80.351895288215957, 43.961757595822327 ], [ -80.351918166228998, 43.961488307700876 ], [ -80.352313852227681, 43.961235544086293 ], [ -80.352451103278796, 43.959619817258158 ], [ -80.35210118223614, 43.959334005959747 ], [ -80.352124058224945, 43.959064718646005 ], [ -80.351774142434266, 43.958778906464886 ], [ -80.351797019798866, 43.95850961941774 ], [ -80.351097202372287, 43.957937992230804 ], [ -80.351120082713209, 43.957668705627135 ], [ -80.350420283091992, 43.957097074556273 ], [ -80.350443166409065, 43.956827788396133 ], [ -80.35009327367537, 43.956541971448566 ], [ -80.350139042835536, 43.95600339975153 ], [ -80.348739521212025, 43.954860122783778 ], [ -80.348366757463495, 43.954843585812739 ], [ -80.34591774952213, 43.952842801688938 ], [ -80.345545000350995, 43.952826254742149 ], [ -80.344845320750508, 43.952254590132036 ], [ -80.344472575905186, 43.952238039390075 ], [ -80.344122743630621, 43.951952204260635 ], [ -80.342631774703065, 43.951885983117258 ], [ -80.342281954280068, 43.951600141985161 ], [ -80.341536475268768, 43.951567021002724 ], [ -80.341186662596627, 43.951281176340032 ], [ -80.340441188587548, 43.951248047593275 ], [ -80.340091383666291, 43.950962199400088 ], [ -80.337482246088655, 43.950846198457022 ], [ -80.337086566705821, 43.951098902738032 ], [ -80.335968363471295, 43.95104916397014 ], [ -80.334804247000221, 43.951537974789318 ], [ -80.334431510066864, 43.951521388409731 ], [ -80.334035811737152, 43.951774081414662 ], [ -80.333290335348948, 43.951740901865094 ], [ -80.3328946301706, 43.951993590640981 ], [ -80.328794508589382, 43.951810992999043 ], [ -80.327045806351819, 43.950381546364248 ], [ -80.327068801744332, 43.950112267677532 ], [ -80.326719073845126, 43.949826375353339 ], [ -80.326742070610436, 43.949557096933916 ], [ -80.326392347959697, 43.949271203729012 ], [ -80.326415346097718, 43.949001925576923 ], [ -80.326065628695318, 43.948716031491365 ], [ -80.326088628206023, 43.948446753606618 ], [ -80.325738916051847, 43.948160858640442 ], [ -80.325761916935122, 43.947891581023086 ], [ -80.325085510626721, 43.947050511099185 ], [ -80.325131517657212, 43.946511957024114 ], [ -80.324781822845409, 43.94622605959394 ], [ -80.324850836490896, 43.94541822968862 ], [ -80.324174474698538, 43.944577156619715 ], [ -80.324266501609685, 43.9435000531195 ], [ -80.325255703840028, 43.942868416880579 ] ], [ [ -80.325453541549507, 43.942742088576829 ], [ -80.325826216045186, 43.942758706643517 ], [ -80.327804534978853, 43.941495397196206 ], [ -80.327850510623435, 43.940956845851616 ], [ -80.3282461593639, 43.940704179743975 ], [ -80.328269144797162, 43.940434904209383 ], [ -80.329060427232392, 43.939929567776232 ], [ -80.329359164011038, 43.936428994096211 ], [ -80.329754773107354, 43.93617632380306 ], [ -80.329823700795131, 43.935368501279605 ], [ -80.33061489574601, 43.934863156487538 ], [ -80.330637867091113, 43.934593882498959 ], [ -80.331033457045336, 43.934341207994677 ], [ -80.331102363577642, 43.933533386578645 ], [ -80.331497943735684, 43.93328071067549 ], [ -80.331624255830775, 43.931799706871068 ] ], [ [ -80.325255703840028, 43.942868416880579 ], [ -80.325453541549507, 43.942742088576829 ] ], [ [ -80.325278704876354, 43.942599141236776 ], [ -80.325453541549507, 43.942742088576829 ] ], [ [ -80.331822038906154, 43.931673368399601 ], [ -80.331635738410014, 43.931665070296972 ] ], [ [ -80.331624255830775, 43.931799706871068 ], [ -80.331635738410014, 43.931665070296972 ] ], [ [ -80.331635738410014, 43.931665070296972 ], [ -80.331286104399879, 43.931379200106683 ], [ -80.331309070987075, 43.931109927203892 ], [ -80.327812947457659, 43.928251168921982 ], [ -80.327440371000321, 43.928234558226137 ], [ -80.327090780754901, 43.927948675347899 ], [ -80.326345632616267, 43.927915447518714 ], [ -80.325996050116132, 43.927629561113363 ], [ -80.325250906979576, 43.927596325524291 ], [ -80.324202193655012, 43.926738652556075 ], [ -80.324225193098286, 43.926469382848126 ], [ -80.322477418474676, 43.925039907651204 ], [ -80.32250042567803, 43.924770638923327 ], [ -80.321824354718913, 43.923929573520823 ], [ -80.321847364664279, 43.923660305329712 ], [ -80.319750227943629, 43.921944890740967 ], [ -80.319773247244342, 43.921675623708524 ], [ -80.319423738815232, 43.921389717756838 ], [ -80.31953883991028, 43.920043384841961 ], [ -80.321166984928965, 43.918494332579556 ], [ -80.321236016929532, 43.91768653449401 ], [ -80.320886526304108, 43.917400634917918 ], [ -80.320932549700785, 43.916862103669821 ], [ -80.320256600324285, 43.916021036929081 ], [ -80.320279614650531, 43.915751771887741 ], [ -80.319603688981132, 43.914910702171795 ], [ -80.319626706048041, 43.91464143766801 ], [ -80.318228876633327, 43.913497816175315 ], [ -80.318240388274589, 43.913363184313873 ] ], [ [ -80.318426624548806, 43.913371505996743 ], [ -80.318251899859305, 43.913228552475104 ] ], [ [ -80.318240388274589, 43.913363184313873 ], [ -80.318251899859305, 43.913228552475104 ] ], [ [ -80.318251899859305, 43.913228552475104 ], [ -80.317576036405185, 43.912387472495112 ], [ -80.31762208811098, 43.911848946260939 ], [ -80.31657379534083, 43.910991214854583 ], [ -80.316596825642577, 43.910721952408437 ], [ -80.316247403604024, 43.910436040005962 ], [ -80.316270435275513, 43.910166777828834 ], [ -80.315571605323143, 43.909594950212764 ], [ -80.315640708555506, 43.908787165295692 ], [ -80.314941902754754, 43.908215334526439 ], [ -80.314569466348587, 43.908198678571168 ], [ -80.313406068933233, 43.908687224545567 ], [ -80.313056676500807, 43.908401302283451 ], [ -80.312311802534069, 43.90836797565597 ], [ -80.311088972055543, 43.907367230785511 ] ], [ [ -80.310914285631085, 43.907224266176947 ], [ -80.309843124689309, 43.906635732402101 ], [ -80.309470700562358, 43.906619058378688 ], [ -80.30912134183059, 43.906333123790496 ], [ -80.308748919978541, 43.906316447211118 ], [ -80.30839956693886, 43.906030510333352 ], [ -80.307654728011215, 43.905997150740859 ], [ -80.306606703044267, 43.90513932637073 ], [ -80.306629779832619, 43.904870068196459 ], [ -80.306280447059123, 43.904584124807606 ], [ -80.30630352521591, 43.904314866902752 ], [ -80.305627954909355, 43.903473719859591 ], [ -80.306023435576378, 43.903221150003141 ], [ -80.306115749597211, 43.902144121095375 ], [ -80.306511218428113, 43.901891549843846 ], [ -80.306580445419556, 43.901083779125308 ], [ -80.307766811621264, 43.900326056957347 ], [ -80.308907018512144, 43.90010683581577 ], [ -80.31088418849437, 43.89884391627681 ], [ -80.313256672263506, 43.897328366419366 ], [ -80.313279713114284, 43.897059109565291 ], [ -80.313675112279213, 43.89680651300359 ], [ -80.313698150856254, 43.896537256243647 ], [ -80.314686627714195, 43.895905758695399 ] ], [ [ -80.311088972055543, 43.907367230785511 ], [ -80.310914285631085, 43.907224266176947 ] ], [ [ -80.310716542581133, 43.907350561169288 ], [ -80.310914285631085, 43.907224266176947 ] ] ] } },
{ "type": "Feature", "properties": { "SubId": 90013941, "DowSubId": 90014227, "RivSlope": 0.0031147094471850002, "RivLength": 5221.461731, "BasSlope": 1.086226914804306, "BasAspect": 179.35229400474626, "BasArea": 37587278.805917002, "BkfWidth": 36.239549066899997, "BkfDepth": 0.71199007112400003, "Lake_Cat": 0, "HyLakeId": 0, "LakeVol": 0.0, "LakeDepth": 0.0, "LakeArea": 0.0, "Laketype": 0, "Has_POI": 0, "MeanElev": 475.05742295655193, "FloodP_n": 0.050537332620440002, "Q_Mean": 24.77302641079444, "Ch_n": 0.041598025708446999, "DrainArea": 468816775.05226099, "Strahler": 3, "Seg_ID": 30, "Seg_order": 3, "Max_DEM": 454.56405639600001, "Min_DEM": 444.06829834000001, "DA_Obs": 0.0, "DA_error": 0.0, "Obs_NM": null, "SRC_obs": null, "centroid_x": -80.341682178711181, "centroid_y": 43.889079176585199, "DA_Chn_L": 60898.187801, "DA_Slope": 0.24072576402599999, "DA_Chn_Slp": 0.051445672560499998, "outletLat": 43.892221770500001, "outletLng": -80.283793022599994, "Region": "SW", "Sub_Reg": "02G", "rvhName": "sub90013941" }, "geometry": { "type": "MultiLineString", "coordinates": [ [ [ -80.314686627714195, 43.895905758695399 ], [ -80.314884320353983, 43.895779458131145 ], [ -80.314976447831498, 43.89470243203958 ], [ -80.314627136306981, 43.894416520297092 ], [ -80.314719266545652, 43.89333949637598 ], [ -80.315114632263203, 43.893086895631654 ], [ -80.315160691931311, 43.892548384223716 ], [ -80.315556049912644, 43.892295782080055 ], [ -80.315206750694912, 43.892009873179838 ], [ -80.315229779737521, 43.89174061779444 ], [ -80.313483346249541, 43.890311058361348 ], [ -80.313111031866185, 43.890294397622512 ], [ -80.312412488056637, 43.889722563996983 ], [ -80.312040177993495, 43.889705899469242 ], [ -80.311690913598056, 43.889419979840433 ], [ -80.310573990907372, 43.889369974627321 ], [ -80.310224736294487, 43.889084050242673 ], [ -80.308735517397167, 43.889017353190276 ], [ -80.30838627461398, 43.888731422816342 ], [ -80.30652476632234, 43.888648015600488 ], [ -80.306129393044245, 43.888900582473148 ], [ -80.305757090471246, 43.888883895656392 ], [ -80.305164021335401, 43.889262741214928 ] ], [ [ -80.305164021335401, 43.889262741214928 ], [ -80.304966329802767, 43.889389022364711 ] ], [ [ -80.304966329802767, 43.889389022364711 ], [ -80.303780161489513, 43.89014670188083 ], [ -80.303407851172608, 43.890130006695891 ], [ -80.302617050901588, 43.890635116523306 ], [ -80.302244737623255, 43.890618417198112 ], [ -80.300663087006498, 43.891628614339155 ], [ -80.300524480545519, 43.893244128553825 ], [ -80.2997105028482, 43.894018471415301 ], [ -80.299687396654946, 43.894287724199764 ], [ -80.29929195123087, 43.894540267179813 ], [ -80.299268842762828, 43.894809520058153 ], [ -80.298477936892681, 43.895314601804195 ], [ -80.298454824101782, 43.895583854779332 ], [ -80.297268431836471, 43.896341466856789 ], [ -80.297245312674335, 43.896610719931473 ], [ -80.296431238704457, 43.897385040792855 ], [ -80.296408114991834, 43.897654294055009 ], [ -80.295221649658089, 43.898411885055559 ], [ -80.294849285834516, 43.898395159301877 ], [ -80.294058287544843, 43.898900210114682 ], [ -80.294035151542033, 43.899169463393505 ], [ -80.293639644884934, 43.899421986692104 ], [ -80.293988878854833, 43.899707970223638 ], [ -80.293896330753952, 43.900784984973839 ], [ -80.290336529074239, 43.903057644148319 ], [ -80.288846954914902, 43.902990663415743 ], [ -80.288497726856065, 43.902704661521561 ], [ -80.287752945239177, 43.902671160757642 ], [ -80.287403724921305, 43.90238515534184 ], [ -80.287031336503148, 43.902368401743743 ], [ -80.284586910619979, 43.900366325673779 ], [ -80.284610093519461, 43.900097074054798 ], [ -80.284260905986272, 43.899811059149222 ], [ -80.284284090251717, 43.899541807800134 ], [ -80.283934907954617, 43.899255792019346 ], [ -80.283958093585937, 43.898986540940172 ], [ -80.283282931696675, 43.898145255944002 ], [ -80.283375683782111, 43.89706825433197 ], [ -80.283771220723423, 43.896815770527198 ], [ -80.283840776250557, 43.896008020279858 ], [ -80.284236303403688, 43.895755535075509 ], [ -80.284444939254669, 43.893332289265082 ], [ -80.28409579565411, 43.893046276371649 ], [ -80.284142159859158, 43.892507778661241 ], [ -80.283804614792118, 43.892087140791169 ] ], [ [ -80.30497786893828, 43.889254396254032 ], [ -80.304966329802767, 43.889389022364711 ] ] ] } },
{ "type": "Feature", "properties": { "SubId": 90014226, "DowSubId": 90014260, "RivSlope": 0.0032523199215599998, "RivLength": 3738.579817, "BasSlope": 2.0175619652600001, "BasAspect": 177.926714344, "BasArea": 12804142.461, "BkfWidth": 42.945856105700003, "BkfDepth": 0.78834628441499999, "Lake_Cat": 0, "HyLakeId": 0, "LakeVol": 0.0, "LakeDepth": 0.0, "LakeArea": 0.0, "Laketype": 0, "Has_POI": 1, "MeanElev": 466.83570692000001, "FloodP_n": 0.050000000745099998, "Q_Mean": 35.577672774900002, "Ch_n": 0.043264267064899997, "DrainArea": 665556539.64957201, "Strahler": 3, "Seg_ID": 33, "Seg_order": 2, "Max_DEM": 447.24368286100002, "Min_DEM": 435.08462524399999, "DA_Obs": 0.0, "DA_error": 0.0, "Obs_NM": "16018406702&02GA014", "SRC_obs": "PWQMN&HYDAT", "centroid_x": -80.264804563769474, "centroid_y": 43.876773215400974, "DA_Chn_L": 64713.53426, "DA_Slope": 0.20841092055499999, "DA_Chn_Slp": 0.10534578254800001, "outletLat": 43.861714872900002, "outletLng": -80.272596833999998, "Region": "SW", "Sub_Reg": "02G", "rvhName": "16018406702&02GA014" }, "geometry": { "type": "LineString", "coordinates": [ [ -80.283850981045305, 43.891548643894005 ], [ -80.283885755137703, 43.891144771459921 ], [ -80.28353662837894, 43.890858757534097 ], [ -80.283582996224865, 43.89032026163229 ], [ -80.283233876293423, 43.89003424701118 ], [ -80.28328024641479, 43.889495751831937 ], [ -80.282232918025102, 43.888637702721766 ], [ -80.282256107522969, 43.888368455806621 ], [ -80.281208816680802, 43.887510397751136 ], [ -80.281232010729283, 43.887241151465126 ], [ -80.279835680282147, 43.886097060024852 ], [ -80.279858880473398, 43.885827814547518 ], [ -80.278113557291292, 43.884397677440766 ], [ -80.278159972914906, 43.883859188554027 ], [ -80.277810922384546, 43.883573158331473 ], [ -80.278019795743703, 43.881149964467369 ], [ -80.277670763183636, 43.88086393480738 ], [ -80.277740388312239, 43.880056205698786 ], [ -80.277391364168395, 43.879770175524328 ], [ -80.277530617826741, 43.878154720846879 ], [ -80.277181606874663, 43.877868690696978 ], [ -80.277204816612297, 43.877599448749621 ], [ -80.276855810891661, 43.877313417726342 ], [ -80.276879021993366, 43.877044176049836 ], [ -80.276181024654122, 43.876472111203647 ], [ -80.276227452541306, 43.875933628843079 ], [ -80.275529476126422, 43.875361560503926 ], [ -80.275552692911688, 43.875092319819949 ], [ -80.275203711754713, 43.874806284250774 ], [ -80.275319800220956, 43.873460083098813 ], [ -80.27571520402789, 43.873207637588152 ], [ -80.275738418990159, 43.872938397634556 ], [ -80.276924602435912, 43.87218105267236 ], [ -80.276947811028649, 43.871911812818816 ], [ -80.277343196185825, 43.871659361688153 ], [ -80.277412814455943, 43.870851642684457 ], [ -80.274272270516647, 43.868277354921446 ], [ -80.274295490473548, 43.868008117054686 ], [ -80.273946560929843, 43.867722079998082 ], [ -80.274062665251833, 43.866375892935039 ], [ -80.274458023791126, 43.866123454547235 ], [ -80.274109105385421, 43.865837418749926 ], [ -80.274155544607481, 43.865298944930657 ], [ -80.273480947525059, 43.864457634486136 ], [ -80.273620277446724, 43.86284221793229 ], [ -80.272922494736477, 43.862270142210839 ], [ -80.272945718774167, 43.862000906798833 ], [ -80.272422393675853, 43.861571847515826 ] ] } },
{ "type": "Feature", "properties": { "SubId": 90014227, "DowSubId": 90014226, "RivSlope": 0.048826768663200001, "RivLength": 90.0, "BasSlope": 3.6774253427, "BasAspect": 72.686197139699999, "BasArea": 5390.706292, "BkfWidth": 42.54352155, "BkfDepth": 0.78390661242100002, "Lake_Cat": 0, "HyLakeId": 0, "LakeVol": 0.0, "LakeDepth": 0.0, "LakeArea": 0.0, "Laketype": 0, "Has_POI": 1, "MeanElev": 447.99761962899993, "FloodP_n": 0.050000000745099998, "Q_Mean": 34.914182597900002, "Ch_n": 0.0406453061162, "DrainArea": 652752397.18857205, "Strahler": 3, "Seg_ID": 33, "Seg_order": 1, "Max_DEM": 448.034423828, "Min_DEM": 443.64001464799998, "DA_Obs": 655.0, "DA_error": 0.99656854532600003, "Obs_NM": "02GA022", "SRC_obs": "HYDAT", "centroid_x": -80.284002365684259, "centroid_y": 43.891960898927756, "DA_Chn_L": 60974.954443000002, "DA_Slope": 0.17292330257, "DA_Chn_Slp": 0.10855256735300001, "outletLat": 43.8916832735, "outletLng": -80.283839389099995, "Region": "SW", "Sub_Reg": "02G", "rvhName": "02GA022" }, "geometry": { "type": "MultiLineString", "coordinates": [ [ [ -80.28361845606581, 43.892078757882622 ], [ -80.283816206440775, 43.891952516532768 ] ], [ [ -80.283804614792118, 43.892087140791169 ], [ -80.283816206440775, 43.891952516532768 ] ], [ [ -80.283816206440775, 43.891952516532768 ], [ -80.283850981045305, 43.891548643894005 ] ] ] } },
{ "type": "Feature", "properties": { "SubId": 90014260, "DowSubId": 90014273, "RivSlope": 0.0051537168346100001, "RivLength": 4878.065296, "BasSlope": 2.02466715558025, "BasAspect": 181.7209286219817, "BasArea": 24990421.373895995, "BkfWidth": 43.719777243899998, "BkfDepth": 0.79683982351000004, "Lake_Cat": 0, "HyLakeId": 0, "LakeVol": 0.0, "LakeDepth": 0.0, "LakeArea": 0.0, "Laketype": 0, "Has_POI": 0, "MeanElev": 471.02603833083026, "FloodP_n": 0.057494340840094998, "Q_Mean": 35.933951436615203, "Ch_n": 0.053170826013393999, "DrainArea": 690546961.02346802, "Strahler": 3, "Seg_ID": 33, "Seg_order": 3, "Max_DEM": 449.31851196299999, "Min_DEM": 425.76004028300002, "DA_Obs": 0.0, "DA_error": 0.0, "Obs_NM": null, "SRC_obs": null, "centroid_x": -80.327955702829811, "centroid_y": 43.856162816936113, "DA_Chn_L": 69591.599556000001, "DA_Slope": 0.229436233446, "DA_Chn_Slp": 0.113539925019, "outletLat": 43.831186830599997, "outletLng": -80.296882972000006, "Region": "SW", "Sub_Reg": "02G", "rvhName": "sub90014260" }, "geometry": { "type": "MultiLineString", "coordinates": [ [ [ -80.272422393675853, 43.861571847515826 ], [ -80.272247953795073, 43.86142882722875 ], [ -80.272364086472209, 43.860082653342161 ], [ -80.272015217391953, 43.859796612879229 ], [ -80.272038444834237, 43.85952737855667 ], [ -80.271689580981644, 43.859241337221782 ], [ -80.271712809786564, 43.858972103170913 ], [ -80.272108125793579, 43.85871967613852 ], [ -80.27213135232418, 43.858450442182317 ], [ -80.272526662647905, 43.858198013747092 ], [ -80.272549886904272, 43.857928779885604 ], [ -80.273735789915534, 43.857171486153874 ], [ -80.27378222546723, 43.8566330187247 ], [ -80.274177515105123, 43.856380584675435 ], [ -80.274200730493121, 43.856111351101497 ], [ -80.274991294766863, 43.855606478792112 ], [ -80.275363362199059, 43.855623274093126 ], [ -80.275758637290522, 43.855370834420917 ], [ -80.27687483618169, 43.855421208174207 ], [ -80.277665365911517, 43.854916316159411 ], [ -80.277781351921789, 43.853570147977756 ], [ -80.278967088556485, 43.852812799463734 ], [ -80.279315949473286, 43.853098814118951 ], [ -80.279711188200721, 43.852846360391204 ], [ -80.280827339373289, 43.852896691879124 ], [ -80.28275711179694, 43.85217284885529 ], [ -80.283129158325295, 43.852189616509961 ], [ -80.283524372963683, 43.85193714870838 ], [ -80.283896418128592, 43.851953913633913 ], [ -80.284291627540014, 43.85170144301842 ], [ -80.28466367134142, 43.851718205214837 ], [ -80.285058875525863, 43.851465731785481 ], [ -80.285430917963694, 43.85148249125281 ], [ -80.285826116921157, 43.851230015009662 ], [ -80.288058366773512, 43.851330535633053 ], [ -80.290801459778137, 43.849832338322976 ], [ -80.291173492895979, 43.849849077366947 ], [ -80.293149260423945, 43.84858657658588 ], [ -80.293172379450525, 43.848317341622376 ], [ -80.293567520003762, 43.848064837255691 ], [ -80.293590636758836, 43.847795602387812 ], [ -80.296356504519409, 43.846028032518475 ], [ -80.29649511441913, 43.844412625401851 ], [ -80.296692663452234, 43.844286367789365 ] ], [ [ -80.297064660775007, 43.844303085794863 ], [ -80.29689021157651, 43.844160109825786 ] ], [ [ -80.296692663452234, 43.844286367789365 ], [ -80.29689021157651, 43.844160109825786 ] ], [ [ -80.29689021157651, 43.844160109825786 ], [ -80.296913310388987, 43.843890875632034 ], [ -80.297308401866829, 43.843638358655518 ], [ -80.297354594723586, 43.843099890551727 ], [ -80.297749678477871, 43.842847372178809 ], [ -80.297818959931377, 43.842039670724802 ], [ -80.298214033918299, 43.841787150959554 ], [ -80.298421847650275, 43.839364051601763 ], [ -80.298072974484356, 43.839078105811225 ], [ -80.29814224642378, 43.83827040822213 ], [ -80.297793381664832, 43.837984461919746 ], [ -80.297862656337983, 43.837176765699489 ], [ -80.297513799985609, 43.836890818885394 ], [ -80.297652352760252, 43.835275430012153 ], [ -80.297303509585802, 43.834989483226877 ], [ -80.297372787686967, 43.834181790574348 ], [ -80.297767807177095, 43.83392927515122 ], [ -80.297418971955253, 43.833643329266721 ], [ -80.297442063749628, 43.833374098751143 ], [ -80.297267648296653, 43.833231125504575 ] ], [ [ -80.297290740659776, 43.832961895171252 ], [ -80.297093233752136, 43.833088151995057 ] ], [ [ -80.297267648296653, 43.833231125504575 ], [ -80.297093233752136, 43.833088151995057 ] ], [ [ -80.297093233752136, 43.833088151995057 ], [ -80.296744407388459, 43.832802204187203 ], [ -80.296894519206248, 43.831052210425369 ] ] ] } },
{ "type": "Feature", "properties": { "SubId": 90014270, "DowSubId": -1, "RivSlope": 0.00072199339615600002, "RivLength": 9287.234899, "BasSlope": 2.2162979701099998, "BasAspect": 190.759420076, "BasArea": 29595318.807700001, "BkfWidth": 46.554922842700002, "BkfDepth": 0.82745356807299997, "Lake_Cat": 1, "HyLakeId": 110809, "LakeVol": 61.2, "LakeDepth": 11.0, "LakeArea": 5540000.0, "Laketype": 2, "Has_POI": 1, "MeanElev": 441.21683431500003, "FloodP_n": 0.059854015490400002, "Q_Mean": 41.808658196099998, "Ch_n": 0.036457013796799997, "DrainArea": 786157637.93900907, "Strahler": 3, "Seg_ID": 35, "Seg_order": 3, "Max_DEM": 427.32171630900001, "Min_DEM": 420.61639404300001, "DA_Obs": 785.0, "DA_error": 1.00147469801, "Obs_NM": "02GA016", "SRC_obs": "HYDAT", "centroid_x": -80.3211364245835, "centroid_y": 43.775708036236033, "DA_Chn_L": 81955.472425999993, "DA_Slope": 0.32858097047700002, "DA_Chn_Slp": 0.102617445396, "outletLat": 43.7346069488, "outletLng": -80.336830951699994, "Region": "SW", "Sub_Reg": "02G", "rvhName": "02GA016" }, "geometry": { "type": "LineString", "coordinates": [ [ -80.308428530107264, 43.807516821359854 ], [ -80.30825416816991, 43.80737387137809 ], [ -80.308392330608726, 43.80575853245125 ], [ -80.308787095015532, 43.805505985140755 ], [ -80.308810119257686, 43.805236762315793 ], [ -80.31117861721809, 43.803721449039209 ], [ -80.311201628990048, 43.803452226337008 ], [ -80.311596363903902, 43.803199669222337 ], [ -80.311711409177235, 43.801853557128766 ], [ -80.311362705077613, 43.801567670020269 ], [ -80.311454743593771, 43.800490782738592 ], [ -80.311849456062191, 43.80023822567987 ], [ -80.311895469886252, 43.799699782606389 ], [ -80.312290174644346, 43.799447224156175 ], [ -80.312313179177806, 43.799178002763867 ], [ -80.312707878266082, 43.798925442917131 ], [ -80.312730880533806, 43.798656221622892 ], [ -80.313520263741495, 43.798151097734767 ], [ -80.313658248131716, 43.796535771982782 ], [ -80.314052922051076, 43.79628320796769 ], [ -80.31407591662051, 43.796013987339528 ], [ -80.314888239756144, 43.795239634590736 ], [ -80.314957209196791, 43.794431973574568 ], [ -80.315351862029559, 43.794179405381577 ], [ -80.315489782588656, 43.792564085891904 ], [ -80.315884419554422, 43.792311516329647 ], [ -80.315930387192566, 43.791773077254618 ], [ -80.31632501645052, 43.791520506301893 ], [ -80.316347997892152, 43.791251286909343 ], [ -80.316742621482035, 43.790998714560835 ], [ -80.316765600658954, 43.790729495266724 ], [ -80.318738653984497, 43.78946661253481 ], [ -80.318761622739459, 43.789197393361064 ], [ -80.325074751216221, 43.785155933356975 ], [ -80.325120622804448, 43.784617495468218 ], [ -80.325515158419137, 43.784364892323495 ], [ -80.325538091837473, 43.784095673524654 ], [ -80.325932621785867, 43.783843068985163 ], [ -80.325955552940911, 43.7835738502853 ], [ -80.326767524731039, 43.782799418421384 ], [ -80.326813377763727, 43.78226098151093 ], [ -80.327207888675488, 43.782008372793314 ], [ -80.327230812816467, 43.781739154483773 ], [ -80.327625318062459, 43.78148654437166 ], [ -80.327648239940473, 43.781217326161212 ], [ -80.328042739520797, 43.780964714654644 ], [ -80.32806565913593, 43.780695496543331 ], [ -80.328877558652437, 43.779921051334917 ], [ -80.328900473742067, 43.779651833421951 ], [ -80.329294956326152, 43.779399217732397 ], [ -80.329317869153144, 43.779129999918659 ], [ -80.329712346072029, 43.778877382834871 ], [ -80.329735256636482, 43.778608165120389 ], [ -80.330129727890309, 43.778355546642459 ], [ -80.330152636192295, 43.778086329027253 ], [ -80.330964467744835, 43.777311870373282 ], [ -80.330987371522113, 43.777042652956737 ], [ -80.331776276414061, 43.776537406236727 ], [ -80.331799175891319, 43.77626818892557 ], [ -80.332193620859371, 43.776015563471731 ], [ -80.332239415065345, 43.775477129141692 ], [ -80.333028285970755, 43.774971874058629 ], [ -80.333074071128877, 43.774433440126508 ], [ -80.333468497066562, 43.774180810497469 ], [ -80.333514277252462, 43.773642376951251 ], [ -80.333908695488702, 43.773389745934708 ], [ -80.333977357973183, 43.772582096334624 ], [ -80.334371766470852, 43.772329463936863 ], [ -80.33441753626461, 43.771791031349771 ], [ -80.334811937061417, 43.771538397564747 ], [ -80.334857701883777, 43.770999965363949 ], [ -80.335252094979964, 43.770747330191774 ], [ -80.335320734420577, 43.769939682610477 ], [ -80.335715117779273, 43.769687046057484 ], [ -80.335760872211381, 43.769148614816686 ], [ -80.336155247870053, 43.768895976876749 ], [ -80.336223871726233, 43.768088330735957 ], [ -80.336618237648182, 43.767835691415478 ], [ -80.336663981691302, 43.767297261135333 ], [ -80.33705833991381, 43.767044620428152 ], [ -80.337126948187489, 43.766236975728773 ], [ -80.337521296674026, 43.765984333641363 ], [ -80.337567030329453, 43.765445904322469 ], [ -80.337961371117146, 43.765193260848598 ], [ -80.338029963810214, 43.764385617591529 ], [ -80.338424294862691, 43.764132972737727 ], [ -80.338492879430277, 43.763325330342639 ], [ -80.338887200747976, 43.763072684109041 ], [ -80.339001493699428, 43.761726615356103 ], [ -80.339395801210046, 43.76147396775584 ], [ -80.339510078382162, 43.760127901377693 ], [ -80.339904372086593, 43.759875252411057 ], [ -80.339995781649819, 43.758798401021728 ], [ -80.340390063585048, 43.758545750682458 ], [ -80.340504310322444, 43.75719968858818 ], [ -80.340898578453164, 43.756947036883119 ], [ -80.340550007450759, 43.756661264406937 ], [ -80.34059570368386, 43.756122840600888 ], [ -80.340247139482315, 43.755837067436751 ], [ -80.340292837996785, 43.755298644367933 ], [ -80.33994428059583, 43.755012870515955 ], [ -80.339989981391511, 43.754474448184482 ], [ -80.339641430790948, 43.754188673644748 ], [ -80.339687133867685, 43.753650252050711 ], [ -80.339338590067229, 43.753364476823307 ], [ -80.339384295424864, 43.752826055966835 ], [ -80.339035758424316, 43.752540280051853 ], [ -80.33908146606268, 43.75200185993301 ], [ -80.336293325913417, 43.749715617725116 ], [ -80.336316192099517, 43.749446409255683 ], [ -80.332831358881677, 43.746588513859272 ], [ -80.333083046766589, 43.743627246836411 ], [ -80.333477251671425, 43.743374627776824 ], [ -80.333660264096508, 43.741220986233586 ], [ -80.33405444909782, 43.740968365829808 ], [ -80.334214558964732, 43.739083934466734 ], [ -80.334608726099319, 43.73883131271257 ], [ -80.334631596006716, 43.738562108615476 ], [ -80.335419915340779, 43.73805686092674 ], [ -80.335442780954679, 43.73778765693752 ], [ -80.336253943052938, 43.737013199789409 ], [ -80.33634538609698, 43.735936385206323 ], [ -80.336739520880286, 43.735683756510667 ], [ -80.336830952205005, 43.734606943462651 ], [ -80.337028014169661, 43.734480628604601 ] ] } },
{ "type": "Feature", "properties": { "SubId": 90014272, "DowSubId": 90014270, "RivSlope": 0.0032147419459100002, "RivLength": 2772.680451, "BasSlope": 2.5489683027900001, "BasAspect": 186.26035721599999, "BasArea": 13117919.145400001, "BkfWidth": 45.697322254, "BkfDepth": 0.81827393523500003, "Lake_Cat": 0, "HyLakeId": 0, "LakeVol": 0.0, "LakeDepth": 0.0, "LakeArea": 0.0, "Laketype": 0, "Has_POI": 1, "MeanElev": 459.89201794399997, "FloodP_n": 0.050000000745099998, "Q_Mean": 40.282508896300001, "Ch_n": 0.043086708398200002, "DrainArea": 756562319.13130903, "Strahler": 3, "Seg_ID": 35, "Seg_order": 2, "Max_DEM": 431.34921264600001, "Min_DEM": 422.43576049799998, "DA_Obs": 769.0, "DA_error": 0.98382616272000001, "Obs_NM": "02GA001", "SRC_obs": "HYDAT", "centroid_x": -80.295144939895408, "centroid_y": 43.814760364348601, "DA_Chn_L": 72668.237527000005, "DA_Slope": 0.254736972422, "DA_Chn_Slp": 0.115010292163, "outletLat": 43.807659776500003, "outletLng": -80.308602892500005, "Region": "SW", "Sub_Reg": "02G", "rvhName": "02GA001" }, "geometry": { "type": "LineString", "coordinates": [ [ -80.298566833149877, 43.828965234531722 ], [ -80.298763041616766, 43.826676790310557 ], [ -80.298414247289799, 43.826390850524213 ], [ -80.298460414791109, 43.82585239439004 ], [ -80.298111627277223, 43.825566453912813 ], [ -80.298157797053108, 43.825027998508553 ], [ -80.29780901635209, 43.824742057340536 ], [ -80.298062951422366, 43.821780561204079 ], [ -80.297714191842687, 43.821494620968778 ], [ -80.29796811700966, 43.818533137997107 ], [ -80.298363021192813, 43.818280625639169 ], [ -80.298501502032224, 43.816665276033007 ], [ -80.29889639033037, 43.816412762298974 ], [ -80.298919467636097, 43.816143537692845 ], [ -80.299314350260488, 43.815891022560336 ], [ -80.299337425297878, 43.815621798051282 ], [ -80.300127175567951, 43.815116763586559 ], [ -80.300150246295104, 43.814847539179148 ], [ -80.30093997795538, 43.814342499112058 ], [ -80.300963044372537, 43.814073274806397 ], [ -80.301775819530945, 43.813299004933427 ], [ -80.301845004496457, 43.812491332877372 ], [ -80.302239847408117, 43.8122388079573 ], [ -80.302285965504609, 43.811700360392251 ], [ -80.306234154084038, 43.809175034143962 ], [ -80.307721205073875, 43.809241759609591 ], [ -80.308510786502879, 43.808736666273006 ], [ -80.30860289295228, 43.807659771078875 ], [ -80.308428530107264, 43.807516821359854 ] ] } },
{ "type": "Feature", "properties": { "SubId": 90014273, "DowSubId": 90014272, "RivSlope": 0.00332617809786, "RivLength": 303.95752, "BasSlope": 3.5470979895300001, "BasAspect": 132.20439386300001, "BasArea": 239841.349671, "BkfWidth": 45.311669932199997, "BkfDepth": 0.81412353029700002, "Lake_Cat": 0, "HyLakeId": 0, "LakeVol": 0.0, "LakeDepth": 0.0, "LakeArea": 0.0, "Laketype": 0, "Has_POI": 1, "MeanElev": 453.10684400600002, "FloodP_n": 0.050000000745099998, "Q_Mean": 39.605467439100003, "Ch_n": 0.043817083287, "DrainArea": 743444399.98590899, "Strahler": 3, "Seg_ID": 35, "Seg_order": 1, "Max_DEM": 425.75021362299998, "Min_DEM": 424.73919677700002, "DA_Obs": 749.0, "DA_error": 0.99258264350600001, "Obs_NM": "02GA027", "SRC_obs": "HYDAT", "centroid_x": -80.301531755377482, "centroid_y": 43.829625282427095, "DA_Chn_L": 69895.557075999997, "DA_Slope": 0.21425574599399999, "DA_Chn_Slp": 0.116357882962, "outletLat": 43.829099854500001, "outletLng": -80.298555290500005, "Region": "SW", "Sub_Reg": "02G", "rvhName": "02GA027" }, "geometry": { "type": "MultiLineString", "coordinates": [ [ [ -80.296906065872776, 43.830917595681946 ], [ -80.297301064023316, 43.830665083124742 ], [ -80.297324155143244, 43.830395853711281 ], [ -80.298509121664353, 43.829638307630105 ], [ -80.298566833149877, 43.828965234531722 ] ], [ [ -80.296894519206248, 43.831052210425369 ], [ -80.296906065872776, 43.830917595681946 ] ], [ [ -80.296731659619738, 43.830774622014403 ], [ -80.296906065872776, 43.830917595681946 ] ] ] } }
]
}
