{
"type": "FeatureCollection",
"name": "sl_connected_lake_v1-0",
"crs": { "type": "name", "properties": { "name": "urn:ogc:def:crs:OGC:1.3:CRS84" } },
"features": [
{ "type": "Feature", "properties": { "Id": 0, "Hylak_id": 9027, "Lake_name": null, "Country": "Canada", "Continent": "North America", "Poly_src": "CanVec", "Lake_type": 1, "Grand_id": 0, "Lake_area": 11.43, "Shore_len": 56.23, "Shore_dev": 4.6900000572199998, "Vol_total": 23.39, "Vol_res": 0.0, "Vol_src": 3, "Depth_avg": 2.0, "Dis_avg": 0.25, "Res_time": 1083.0, "Elevation": 479, "Slope_100": 0.87999999523200001, "Wshd_area": 35.8, "Pour_long": -80.403566, "Pour_lat": 43.9627 }, "geometry": { "type": "Polygon", "coordinates": [ [ [ -80.403845587559218, 43.962963390028079 ], [ -80.401867586398652, 43.962565889871556 ], [ -80.401260585566376, 43.962184590312297 ], [ -80.401166086043986, 43.961661889872836 ], [ -80.401681786216798, 43.961205389860041 ], [ -80.401575286432589, 43.960637589736393 ], [ -80.40122128538313, 43.959888490337057 ], [ -80.400885986156098, 43.958527190392388 ], [ -80.400226285120013, 43.957200188804016 ], [ -80.400169784446859, 43.956614689220821 ], [ -80.402010485585564, 43.954526488543898 ], [ -80.402265985889585, 43.953906589241456 ], [ -80.403132885815239, 43.953208789307176 ], [ -80.404571485903631, 43.952676087588387 ], [ -80.404862785694107, 43.95220938808886 ], [ -80.404895385521243, 43.951444287656237 ], [ -80.405661686168344, 43.950835987829144 ], [ -80.406286086684759, 43.950704188116553 ], [ -80.408952986434429, 43.94945758803614 ], [ -80.40945708680151, 43.948892888017106 ], [ -80.409424887320114, 43.948361487778051 ], [ -80.409142686829128, 43.947918886804118 ], [ -80.408201587476327, 43.947310786886554 ], [ -80.407417887540163, 43.947171686709417 ], [ -80.407681986508109, 43.946929986805642 ], [ -80.407735786989079, 43.946534086891631 ], [ -80.408321986755709, 43.94648308668684 ], [ -80.409150987295192, 43.945821087144743 ], [ -80.408837387319622, 43.944775086896946 ], [ -80.408940586397222, 43.944424486798987 ], [ -80.408658287553067, 43.943981786840183 ], [ -80.409849686782522, 43.943213687365365 ], [ -80.410648986720275, 43.943037686770509 ], [ -80.411825587893517, 43.942503485567954 ], [ -80.411189786955489, 43.942527285681315 ], [ -80.410339287165854, 43.942846986606774 ], [ -80.411142086855051, 43.942310986143262 ], [ -80.411500087278299, 43.940133886326009 ], [ -80.411814487021289, 43.939838386281657 ], [ -80.411968387569459, 43.939388986450638 ], [ -80.412784487738492, 43.938762986177046 ], [ -80.412957187913989, 43.938304685807076 ], [ -80.412923186704674, 43.937728184952654 ], [ -80.41264838725327, 43.937240585456578 ], [ -80.411780787002385, 43.936227785248022 ], [ -80.411129387109639, 43.935792185422955 ], [ -80.409772985931781, 43.935857285023545 ], [ -80.409170085454448, 43.936349284958318 ], [ -80.408507186154068, 43.936606986256088 ], [ -80.405196484442541, 43.936400785672639 ], [ -80.405032785363659, 43.936651985613274 ], [ -80.404470785499271, 43.936784086217031 ], [ -80.404267885385764, 43.937845486455949 ], [ -80.404402485506068, 43.938404385609026 ], [ -80.403921684488822, 43.939131186159294 ], [ -80.402582583648766, 43.939718486286672 ], [ -80.401517883951243, 43.941522686550456 ], [ -80.401236183926301, 43.942277487344548 ], [ -80.401366583408347, 43.942935386755835 ], [ -80.401015483493055, 43.943158686606694 ], [ -80.400950983728023, 43.943374386933698 ], [ -80.400879683994319, 43.943031887239968 ], [ -80.401120684062207, 43.942609987138098 ], [ -80.400816384311028, 43.941888086692529 ], [ -80.400492284633771, 43.941904386578905 ], [ -80.400048583839023, 43.941415887344995 ], [ -80.399835784355375, 43.941513787458852 ], [ -80.399858184286074, 43.941766087456507 ], [ -80.399709283850171, 43.941702287114815 ], [ -80.39963968381214, 43.941188686625111 ], [ -80.398675582601712, 43.94164278693929 ], [ -80.39883948271904, 43.941454586640198 ], [ -80.398468483638965, 43.941173486745917 ], [ -80.398570282782686, 43.940966987190627 ], [ -80.398065182599098, 43.940397086918985 ], [ -80.397995683029876, 43.93987448670368 ], [ -80.398046583470816, 43.939766686695428 ], [ -80.398356382601619, 43.939939386984044 ], [ -80.398482082667329, 43.939822986818562 ], [ -80.398025382501757, 43.93939748627583 ], [ -80.398347982623037, 43.939534186324138 ], [ -80.399383083275339, 43.939440586367873 ], [ -80.400377384596069, 43.939697885834072 ], [ -80.401100884076612, 43.939611685974839 ], [ -80.400992583444264, 43.939232986268898 ], [ -80.399463482779296, 43.937955385744765 ], [ -80.399213182742656, 43.937287786107078 ], [ -80.399519283498918, 43.93674018614972 ], [ -80.400058082658362, 43.936517985665951 ], [ -80.400063583001526, 43.935977785869575 ], [ -80.400404283158537, 43.935619385670641 ], [ -80.4012389841307, 43.935632785956109 ], [ -80.401928583514689, 43.935276286020212 ], [ -80.403115183543704, 43.934985285330164 ], [ -80.403854584008954, 43.934547985253296 ], [ -80.405239185087254, 43.933132684902894 ], [ -80.405764184870947, 43.932964284676629 ], [ -80.407596785193149, 43.932928785360318 ], [ -80.408874285474894, 43.933502684608136 ], [ -80.41024848613047, 43.934464084945304 ], [ -80.410807786567673, 43.93460208463128 ], [ -80.412029286444096, 43.934473285393437 ], [ -80.412656486440326, 43.934044384666905 ], [ -80.412924187107535, 43.933433484623656 ], [ -80.412940286739953, 43.933055385208327 ], [ -80.412535686528557, 43.932396085295359 ], [ -80.412478387517737, 43.931810483773475 ], [ -80.411751987027415, 43.930933384212182 ], [ -80.411261786333512, 43.930021483825975 ], [ -80.410329685576585, 43.929791583745235 ], [ -80.40953058556866, 43.929976583967132 ], [ -80.408916486326405, 43.93034258417741 ], [ -80.406163585534841, 43.930301285300374 ], [ -80.40525808357404, 43.929909384370447 ], [ -80.404679984161476, 43.929087083568263 ], [ -80.403491084070055, 43.9283785843486 ], [ -80.401940483292947, 43.927713183988324 ], [ -80.400383182716766, 43.92671468414629 ], [ -80.400558482351514, 43.926625484329996 ], [ -80.401665283580385, 43.92682038428692 ], [ -80.402095882764598, 43.926111383984725 ], [ -80.403024583472302, 43.925431883755394 ], [ -80.40357358305981, 43.924093283739353 ], [ -80.403407683392061, 43.923237082572705 ], [ -80.40393258243671, 43.923068683282516 ], [ -80.404015583567514, 43.923492283007164 ], [ -80.404414784609273, 43.923431383127784 ], [ -80.404698184095125, 43.924990484144175 ], [ -80.404593983991475, 43.925449083923667 ], [ -80.404689083897978, 43.925908784072533 ], [ -80.404935884508802, 43.926144184024295 ], [ -80.40518618396672, 43.926028484288004 ], [ -80.404914584105441, 43.925783883898838 ], [ -80.404904284572453, 43.925567783837437 ], [ -80.405278684517342, 43.925497684115882 ], [ -80.405438284265685, 43.925732584015144 ], [ -80.405588083677358, 43.925697384313303 ], [ -80.406178884160838, 43.925169284227586 ], [ -80.406045883954661, 43.924763384097893 ], [ -80.406208983471728, 43.92463818416681 ], [ -80.406193883937249, 43.924908184331919 ], [ -80.406552483579901, 43.925171183935525 ], [ -80.406500183812867, 43.925422983943619 ], [ -80.406723084535173, 43.925559284063638 ], [ -80.407346885179876, 43.925463384206964 ], [ -80.407443684710174, 43.925752084120425 ], [ -80.407692284534107, 43.925807383559636 ], [ -80.408153784650182, 43.925746684112696 ], [ -80.408393785308661, 43.925414884403104 ], [ -80.408679085546552, 43.925542384015799 ], [ -80.408651884914974, 43.925767283677281 ], [ -80.409450984819017, 43.925582383817094 ], [ -80.409716184891778, 43.925223582857171 ], [ -80.409605784564718, 43.925042982659875 ], [ -80.41003368483203, 43.924603983215206 ], [ -80.410344485407748, 43.924668582764298 ], [ -80.410508486181655, 43.924462382732955 ], [ -80.410807186437054, 43.924490882641258 ], [ -80.410854785771875, 43.924716282804752 ], [ -80.41105348550596, 43.924780283071442 ], [ -80.411404785576991, 43.924520982576567 ], [ -80.411875485689308, 43.924793582886295 ], [ -80.411810985454423, 43.925018282942155 ], [ -80.41198208651808, 43.925352282705454 ], [ -80.412467585859787, 43.925390883267845 ], [ -80.412140785680563, 43.925686282585993 ], [ -80.412513686241041, 43.92576918257911 ], [ -80.412826686445669, 43.925608782876026 ], [ -80.413131686264762, 43.924998083000105 ], [ -80.413082986565911, 43.924880783335155 ], [ -80.412609485822756, 43.924896382990568 ], [ -80.413126085398659, 43.924295782939183 ], [ -80.411156886273929, 43.921872683066297 ], [ -80.410684384806615, 43.921780183058935 ], [ -80.410737684605564, 43.921429282812994 ], [ -80.410440384803223, 43.921265683297307 ], [ -80.410467685191151, 43.921022782665695 ], [ -80.411078785608098, 43.920944882614698 ], [ -80.412382985600502, 43.921320683134425 ], [ -80.414364886414859, 43.921186882612773 ], [ -80.416858886869292, 43.922189983395242 ], [ -80.417530987818409, 43.922238483436715 ], [ -80.418894488392297, 43.921651182182117 ], [ -80.418805687771027, 43.92054328235259 ], [ -80.419538387752027, 43.919484482063424 ], [ -80.420469287757925, 43.918543881750921 ], [ -80.422690489533778, 43.918122881635874 ], [ -80.423437388577611, 43.918162682121128 ], [ -80.425397190444144, 43.917722380892933 ], [ -80.425582890638381, 43.917840380593375 ], [ -80.424383289328389, 43.918248482317551 ], [ -80.424144488681549, 43.91846338166016 ], [ -80.423570789115729, 43.918541481727026 ], [ -80.423457089351189, 43.918711981705052 ], [ -80.425663590295642, 43.919812581962034 ], [ -80.425846090357041, 43.920263681685292 ], [ -80.425679490153556, 43.920749082243809 ], [ -80.42632539019047, 43.920941382415556 ], [ -80.427721590874455, 43.922128381786173 ], [ -80.428107390363664, 43.922166382236732 ], [ -80.428683291513892, 43.921863082155298 ], [ -80.429356891545723, 43.921767481789125 ], [ -80.429591491090761, 43.921984681926851 ], [ -80.430387691490395, 43.92208768187222 ], [ -80.431179791521927, 43.922623482042205 ], [ -80.431027491381499, 43.922919781982813 ], [ -80.430265392416473, 43.923159082265521 ], [ -80.429218691468364, 43.923189381673545 ], [ -80.429229790483262, 43.923333981914851 ], [ -80.429762692475563, 43.923624782299378 ], [ -80.432428592503967, 43.923611581756866 ], [ -80.433130192977586, 43.923182882027504 ], [ -80.434537392828716, 43.923227081775664 ], [ -80.436036494390436, 43.922777481981086 ], [ -80.436826494147709, 43.922224281775541 ], [ -80.436631193863903, 43.921797381905712 ], [ -80.436699594146688, 43.921147180931918 ], [ -80.436464894391762, 43.920938380996709 ], [ -80.435569492634627, 43.920780281198134 ], [ -80.435409292644039, 43.920599481260851 ], [ -80.436211493159547, 43.920072180969989 ], [ -80.436622392605855, 43.920092181416798 ], [ -80.437285293665326, 43.919798881419965 ], [ -80.437668794273463, 43.920080480787142 ], [ -80.43738709374901, 43.920889980995383 ], [ -80.43758879424847, 43.921960781700527 ], [ -80.439717494503881, 43.923438782276165 ], [ -80.44121959455741, 43.923995382007455 ], [ -80.441952795946889, 43.924179082148086 ], [ -80.442601096176574, 43.92411918222092 ], [ -80.442964195823564, 43.923922882332569 ], [ -80.443557096368764, 43.923133482347595 ], [ -80.446228497166956, 43.922516181032336 ], [ -80.446602297551991, 43.922508981009479 ], [ -80.447280797403891, 43.923223581046365 ], [ -80.447604196649053, 43.923279180803384 ], [ -80.447830497654209, 43.923055180616203 ], [ -80.448254197207476, 43.923039180872372 ], [ -80.448450497988887, 43.923364281150789 ], [ -80.448698398491615, 43.924842081828267 ], [ -80.448983297422473, 43.925014481562627 ], [ -80.449764798088978, 43.926728981804878 ], [ -80.449721298566914, 43.927395082371994 ], [ -80.449930298434481, 43.927702181668934 ], [ -80.449850997417371, 43.928196981739418 ], [ -80.450032699225758, 43.928756082339554 ], [ -80.450552399374146, 43.929136681575095 ], [ -80.451797198720456, 43.92925078239503 ], [ -80.452703698536979, 43.929570182152069 ], [ -80.452713499600307, 43.929858381812757 ], [ -80.453246500133247, 43.930158082209317 ], [ -80.453628399653269, 43.930628081700249 ], [ -80.453775000352763, 43.932312482668451 ], [ -80.453345299553902, 43.932976683035207 ], [ -80.453289999586346, 43.933570683295237 ], [ -80.453759099721324, 43.936778183045 ], [ -80.45370290042446, 43.938830784012012 ], [ -80.454436701080425, 43.940337884417104 ], [ -80.455004601516393, 43.940925783679823 ], [ -80.455212200577961, 43.941385984397648 ], [ -80.45571980180145, 43.941748584267764 ], [ -80.456064201663068, 43.942245383891105 ], [ -80.456086202433497, 43.942560583784775 ], [ -80.456285402003189, 43.942579583583829 ], [ -80.45628250255875, 43.942903683667922 ], [ -80.456006202032313, 43.943136484350177 ], [ -80.456216602030452, 43.943290483724439 ], [ -80.455947402405627, 43.944126584843453 ], [ -80.45615630184335, 43.944442685280357 ], [ -80.456479201642011, 43.944561284784974 ], [ -80.456328701713247, 43.9446685852119 ], [ -80.455433102316405, 43.944493284836518 ], [ -80.454883301900892, 43.944652685036274 ], [ -80.454617601639455, 43.945101584606682 ], [ -80.454745401455455, 43.946110584582136 ], [ -80.455134101721981, 43.94721988472056 ], [ -80.456457001473794, 43.948378685125718 ], [ -80.456377301892545, 43.948918484931923 ], [ -80.456896403267081, 43.949398185225398 ], [ -80.457028603206922, 43.949929986305811 ], [ -80.455821901622102, 43.949699186254705 ], [ -80.455271201477885, 43.949957686322449 ], [ -80.455304001564741, 43.950452985784125 ], [ -80.456070602133607, 43.951122886290413 ], [ -80.45563270214906, 43.951309886000992 ], [ -80.45510300216479, 43.951991686438269 ], [ -80.454375602332192, 43.952492386158639 ], [ -80.454229202025573, 43.953509086359766 ], [ -80.453350302006612, 43.954216186376925 ], [ -80.453066701482172, 43.955250286574682 ], [ -80.45268670139383, 43.955905687048528 ], [ -80.45160960239447, 43.956476786863313 ], [ -80.449833400627753, 43.958520987156923 ], [ -80.449106600994369, 43.958940688052834 ], [ -80.447946400624616, 43.959052187793255 ], [ -80.446828699703588, 43.958614588216548 ], [ -80.446833500293124, 43.958092386782944 ], [ -80.447124799811178, 43.957589587035926 ], [ -80.447913600366718, 43.957206287179922 ], [ -80.448934500455408, 43.955977686564459 ], [ -80.448887101232202, 43.955707387127227 ], [ -80.447720699712974, 43.955152486829803 ], [ -80.44614949942293, 43.955232187414317 ], [ -80.445988899986986, 43.955078286724095 ], [ -80.446254400429439, 43.95467438718952 ], [ -80.44752109992011, 43.953825186598884 ], [ -80.447777399768981, 43.953061686833252 ], [ -80.447529600643563, 43.951548485752802 ], [ -80.446576699499801, 43.950824685732528 ], [ -80.446262199488771, 43.949797386062741 ], [ -80.446001799326979, 43.949651985717267 ], [ -80.446670198987704, 43.948799886414697 ], [ -80.447106098759079, 43.948828486037286 ], [ -80.447195399175286, 43.948612786339744 ], [ -80.446875599266576, 43.948152685787498 ], [ -80.446412498873414, 43.948366486270466 ], [ -80.446414498592958, 43.94815038573519 ], [ -80.446227898686928, 43.948122485987916 ], [ -80.445876899053786, 43.94834648570361 ], [ -80.443592298318649, 43.94877598577682 ], [ -80.442944298507157, 43.948771186083732 ], [ -80.443146598441274, 43.948457586056072 ], [ -80.442085298111934, 43.948680885849306 ], [ -80.441859498051329, 43.948830585676376 ], [ -80.44258239748423, 43.948821686097681 ], [ -80.442356298450946, 43.949016986133408 ], [ -80.44029679647069, 43.949361485674117 ], [ -80.438708197565148, 43.949985585626649 ], [ -80.437610095865651, 43.950133286853841 ], [ -80.435635196096698, 43.950744786941563 ], [ -80.43532149577544, 43.950968287436929 ], [ -80.434785495541618, 43.950983687119241 ], [ -80.43403419557788, 43.951349087024099 ], [ -80.433842495364601, 43.951852386662225 ], [ -80.433966095180693, 43.951969987316467 ], [ -80.436201096423503, 43.952845386850043 ], [ -80.436049096347489, 43.95310578661288 ], [ -80.435398596178104, 43.953363686600525 ], [ -80.435069095345227, 43.953938287416584 ], [ -80.435228195419413, 43.954254187171571 ], [ -80.436086496515784, 43.95442948690431 ], [ -80.436008995974007, 43.95471718689106 ], [ -80.43558509576583, 43.95473308677964 ], [ -80.434578995829156, 43.954367986878474 ], [ -80.433357694631624, 43.954352986656659 ], [ -80.432763094465358, 43.953971886555735 ], [ -80.432388495208571, 43.954042087026167 ], [ -80.433020295456771, 43.954450387348103 ], [ -80.434289396586664, 43.954681687398377 ], [ -80.435230895968445, 43.955280587892794 ], [ -80.435554296285062, 43.956668787690354 ], [ -80.435836396854654, 43.957156288404178 ], [ -80.436296597118528, 43.957257587903364 ], [ -80.436882596519723, 43.958565988044086 ], [ -80.437822496985731, 43.959344987632115 ], [ -80.438238098428442, 43.960220388216051 ], [ -80.439436397663343, 43.961371388060094 ], [ -80.439396898450738, 43.96159458822769 ], [ -80.437961798011671, 43.960444087608309 ], [ -80.436051397389534, 43.959471287691088 ], [ -80.435161895606896, 43.958629588139353 ], [ -80.434010295573188, 43.957822587624989 ], [ -80.433153996118648, 43.957431187774496 ], [ -80.432920795977807, 43.957051888345127 ], [ -80.432224294751862, 43.956895388112606 ], [ -80.430910494831764, 43.956114487605568 ], [ -80.430386594495602, 43.956165988031024 ], [ -80.430120794806143, 43.956587788308944 ], [ -80.429225594180281, 43.956358188344034 ], [ -80.428830093964251, 43.956005087639312 ], [ -80.428444693771667, 43.955904187649416 ], [ -80.428294593808616, 43.955966388243048 ], [ -80.428465694141607, 43.956318387669306 ], [ -80.427904494001169, 43.956351587603905 ], [ -80.427511994472866, 43.955683387652321 ], [ -80.426049793376038, 43.954802687634832 ], [ -80.425124793558979, 43.955077187645792 ], [ -80.424570192538226, 43.955722687920236 ], [ -80.425027493493076, 43.956130087859037 ], [ -80.424312793376046, 43.956567687570917 ], [ -80.422940291744013, 43.956722887768258 ], [ -80.419565291352924, 43.956435688303991 ], [ -80.418900690474004, 43.956855489373602 ], [ -80.418873390866139, 43.957098389286486 ], [ -80.418357791034168, 43.95756398897155 ], [ -80.417948090576189, 43.957399888905847 ], [ -80.417623190781882, 43.957488189033583 ], [ -80.416656689473584, 43.95690708901774 ], [ -80.415029190428612, 43.956367589203758 ], [ -80.414031990241455, 43.956371488735115 ], [ -80.412703888844248, 43.957075889244457 ], [ -80.411634388984425, 43.958096788684273 ], [ -80.411150388842259, 43.959147789293745 ], [ -80.410545389065149, 43.959828888961781 ], [ -80.40944418781686, 43.960264390292458 ], [ -80.408582988261671, 43.960385990130824 ], [ -80.406866788597213, 43.959989990014044 ], [ -80.405645586775208, 43.95995658989353 ], [ -80.404980087026516, 43.960448289860203 ], [ -80.404889987184205, 43.960726989689775 ], [ -80.405072186946967, 43.961205089677463 ], [ -80.404331186373639, 43.961768490039411 ], [ -80.404439887261475, 43.962120190159091 ], [ -80.404262886669116, 43.962362390286827 ], [ -80.404138586739691, 43.962325689918515 ], [ -80.404196986795085, 43.962722189704415 ], [ -80.403845587559218, 43.962963390028079 ] ], [ [ -80.420353991351689, 43.950947486769024 ], [ -80.421754291537908, 43.950486387119476 ], [ -80.422208191552116, 43.949939487033916 ], [ -80.422571192251098, 43.949779287295208 ], [ -80.423093791553313, 43.949862887014682 ], [ -80.423872192633851, 43.950560086618061 ], [ -80.425229792912106, 43.950647987212236 ], [ -80.42636529317582, 43.950500587190987 ], [ -80.426804192939059, 43.95021468737788 ], [ -80.427284493105716, 43.949514786783546 ], [ -80.427405193267987, 43.948633087424334 ], [ -80.426766392715763, 43.94766648694516 ], [ -80.426320392653309, 43.947394186822649 ], [ -80.425784592101735, 43.94739148668252 ], [ -80.425234892120216, 43.947532786799052 ], [ -80.424720392455157, 43.947899287310094 ], [ -80.424371591631697, 43.947888586850318 ], [ -80.423039692580758, 43.9490162872588 ], [ -80.422715492386246, 43.94903268731963 ], [ -80.422405392452873, 43.948878087093711 ], [ -80.421680090825163, 43.947856986938433 ], [ -80.421062090394159, 43.947331587195528 ], [ -80.419560789962432, 43.946648786952821 ], [ -80.418475589741661, 43.946760286549306 ], [ -80.417820589545812, 43.947468187420974 ], [ -80.417666889616072, 43.947899586679583 ], [ -80.417682289489989, 43.948872086614379 ], [ -80.418865091244896, 43.950264687374684 ], [ -80.420353991351689, 43.950947486769024 ] ], [ [ -80.431542593746258, 43.947330186402546 ], [ -80.431053394585092, 43.947660886424281 ], [ -80.430938293879152, 43.947966386211284 ], [ -80.431418894457394, 43.948536087138038 ], [ -80.432581694605489, 43.94944218733324 ], [ -80.433738994965424, 43.949627986919936 ], [ -80.435299696233344, 43.949320585799313 ], [ -80.436083396120239, 43.949468485794739 ], [ -80.436210095653408, 43.949252986137523 ], [ -80.437767896527646, 43.949251685635382 ], [ -80.438853896527846, 43.949067985834802 ], [ -80.439542197419371, 43.948762986319963 ], [ -80.441860998105028, 43.948678086066721 ], [ -80.44269919825642, 43.948328185990619 ], [ -80.443485097917062, 43.948244286201458 ], [ -80.444424597355123, 43.947718186387306 ], [ -80.44452349827705, 43.947808685991859 ], [ -80.444384098202889, 43.948060086048777 ], [ -80.444707698756147, 43.948097685968605 ], [ -80.445558398875079, 43.947750686051783 ], [ -80.445848198642508, 43.947409985958295 ], [ -80.445579699505998, 43.946796386281456 ], [ -80.446142398943906, 43.946591485173066 ], [ -80.446489098662383, 43.946827285912001 ], [ -80.447201499399497, 43.946605085072505 ], [ -80.447652899545304, 43.946300585007691 ], [ -80.447569199253337, 43.945921984907706 ], [ -80.447954299077992, 43.946049885295956 ], [ -80.448258298498416, 43.945519584958809 ], [ -80.447948799055439, 43.945301985286591 ], [ -80.447882598977429, 43.944374384857298 ], [ -80.447622599169392, 43.944192984621097 ], [ -80.4476006990607, 43.943868185291251 ], [ -80.447312598683538, 43.944020484625845 ], [ -80.447115398652173, 43.943785384877039 ], [ -80.447389899466017, 43.943750685124755 ], [ -80.44751689940415, 43.94349868473018 ], [ -80.446800099412556, 43.942855985409125 ], [ -80.44684089916376, 43.942486985245459 ], [ -80.446232998757111, 43.942195885223832 ], [ -80.446508699370071, 43.942025584848572 ], [ -80.446484999024889, 43.94189048469012 ], [ -80.445999897671086, 43.941798085181389 ], [ -80.445549298479278, 43.942012584921038 ], [ -80.445004797515452, 43.942947384928303 ], [ -80.444314698285538, 43.94346628466981 ], [ -80.444248698193235, 43.943853684987396 ], [ -80.443087197403997, 43.944134385133374 ], [ -80.443084098091632, 43.944467584928645 ], [ -80.441634797607676, 43.944875184919304 ], [ -80.440994497069909, 43.945388685691704 ], [ -80.440547196796388, 43.945244085923903 ], [ -80.440233896823173, 43.945433285830482 ], [ -80.438124996040017, 43.945742086384442 ], [ -80.436844296156863, 43.945438585946398 ], [ -80.436394695909868, 43.945544486043687 ], [ -80.435524994803075, 43.945261086209342 ], [ -80.435116994484602, 43.944925886018972 ], [ -80.43461559522251, 43.945229585713271 ], [ -80.434675594529139, 43.94548198631459 ], [ -80.435272694515746, 43.945583985911306 ], [ -80.435232895204749, 43.945844886254385 ], [ -80.432900994433325, 43.94601338599945 ], [ -80.431585493654012, 43.94674518557197 ], [ -80.431542593746258, 43.947330186402546 ] ], [ [ -80.437673195697812, 43.944758486409583 ], [ -80.437882696381934, 43.945002586364524 ], [ -80.439066796122631, 43.944972386238831 ], [ -80.441102396970663, 43.944505185433286 ], [ -80.443502997824268, 43.942309884668575 ], [ -80.443113496593213, 43.941317585287592 ], [ -80.443082697555468, 43.940615085147137 ], [ -80.443362197564596, 43.940031283906379 ], [ -80.444124997879356, 43.939746883632694 ], [ -80.444130197560142, 43.939189183964245 ], [ -80.441191896660939, 43.937608783709528 ], [ -80.44030839656287, 43.937487483935833 ], [ -80.440473095454095, 43.937191183856832 ], [ -80.441670696911828, 43.937034883602038 ], [ -80.442191696460313, 43.937280583905213 ], [ -80.442429996628974, 43.93711068409975 ], [ -80.443615396863478, 43.936936384431633 ], [ -80.447250697456539, 43.937251084023423 ], [ -80.447787399064779, 43.937154683681584 ], [ -80.447926098946724, 43.936975283650924 ], [ -80.44776959755437, 43.936380283930774 ], [ -80.447374197692668, 43.936018183566979 ], [ -80.446834398109829, 43.935115282693033 ], [ -80.446955297670812, 43.934170482830226 ], [ -80.446781497936186, 43.934097583294864 ], [ -80.446600898498403, 43.933421382779017 ], [ -80.445127997271172, 43.931028283011358 ], [ -80.443964897534414, 43.930167283212207 ], [ -80.443367096931283, 43.930146383044928 ], [ -80.442790696078561, 43.930503782730433 ], [ -80.442694695675868, 43.931448682956436 ], [ -80.442186696185701, 43.932481583073567 ], [ -80.441655995379861, 43.934612884363588 ], [ -80.440557796577878, 43.934796584202218 ], [ -80.43955079572568, 43.93456658409017 ], [ -80.438397094555555, 43.933862583846235 ], [ -80.438057794360247, 43.932515383256415 ], [ -80.43826169472149, 43.930629582670392 ], [ -80.437955494897366, 43.930066483311258 ], [ -80.437375195598108, 43.929594882709701 ], [ -80.436480294334174, 43.929377183122639 ], [ -80.433761692967551, 43.92966028316588 ], [ -80.433108993294113, 43.930179282730286 ], [ -80.432689693211159, 43.931040983318866 ], [ -80.432530493319206, 43.932056483693636 ], [ -80.432588193592963, 43.933028584155778 ], [ -80.433002794027061, 43.933976083953404 ], [ -80.435327594511264, 43.934024183855399 ], [ -80.437069495228684, 43.934603883801522 ], [ -80.437563595112692, 43.935223684162665 ], [ -80.438086794475652, 43.936468183701308 ], [ -80.438334296442008, 43.936651083756068 ], [ -80.438019595275833, 43.936995684118621 ], [ -80.438765195619879, 43.937292483692531 ], [ -80.439139095534259, 43.937274683721348 ], [ -80.439359795831791, 43.937653884136381 ], [ -80.439856896481487, 43.937800383845129 ], [ -80.440908096940106, 43.938642883783217 ], [ -80.44121209713667, 43.93944568418285 ], [ -80.441397797509623, 43.939572584471264 ], [ -80.441219397041777, 43.939996585393239 ], [ -80.440517197033316, 43.940467584994856 ], [ -80.439855095721882, 43.940651084892345 ], [ -80.438208695534641, 43.940817485415025 ], [ -80.436020095345228, 43.940347585135605 ], [ -80.435667695271661, 43.940714985079836 ], [ -80.435501795043848, 43.94112828516289 ], [ -80.435670794518316, 43.941705384620164 ], [ -80.435429995347789, 43.942136385056052 ], [ -80.435687194981256, 43.942605784717138 ], [ -80.435633694804253, 43.942992684550077 ], [ -80.436012794726523, 43.943750885219892 ], [ -80.436827796016971, 43.944547185768442 ], [ -80.437673195697812, 43.944758486409583 ] ], [ [ -80.429199293040625, 43.94215948590255 ], [ -80.43048549276871, 43.941877785136086 ], [ -80.43067189457922, 43.941923685084987 ], [ -80.430806294137639, 43.942203485403866 ], [ -80.431281894326347, 43.941989785452954 ], [ -80.431262094537004, 43.941449384662469 ], [ -80.43167869415413, 43.940884285454942 ], [ -80.431459494323008, 43.940351985406728 ], [ -80.430849593234527, 43.940276884981103 ], [ -80.429697692773587, 43.94086538502637 ], [ -80.429357993483407, 43.941196885345406 ], [ -80.428421592674738, 43.941399285097553 ], [ -80.428331893210881, 43.941650884719621 ], [ -80.428580992953172, 43.94166118461677 ], [ -80.429199293040625, 43.94215948590255 ] ], [ [ -80.419809289981757, 43.940320486222838 ], [ -80.42092409015072, 43.939722885424658 ], [ -80.421266190017505, 43.939130384880244 ], [ -80.421235990380083, 43.938391885004826 ], [ -80.42144849055525, 43.938158885312006 ], [ -80.421288089871908, 43.9378338853138 ], [ -80.421350789934124, 43.937555084673697 ], [ -80.42112729031696, 43.937400885082255 ], [ -80.421053790135758, 43.937103485187777 ], [ -80.419771589830219, 43.937547085410152 ], [ -80.418891588666, 43.938587085059318 ], [ -80.418975590618345, 43.938920584586647 ], [ -80.41882069015054, 43.939469085885968 ], [ -80.419166989929579, 43.939740986278537 ], [ -80.419410589944718, 43.940318385581946 ], [ -80.419809289981757, 43.940320486222838 ] ], [ [ -80.437340694906666, 43.937555583848408 ], [ -80.436117794651025, 43.937664983927675 ], [ -80.435916595286315, 43.937943084372769 ], [ -80.436938994827116, 43.939361684577669 ], [ -80.438056496528731, 43.939781285383866 ], [ -80.438693795556446, 43.939586385392424 ], [ -80.439046795893063, 43.939146984665719 ], [ -80.438864996363947, 43.938596784183744 ], [ -80.438272995746331, 43.937874783793141 ], [ -80.437340694906666, 43.937555583848408 ] ], [ [ -80.453865101632587, 43.941532583793744 ], [ -80.45241789972647, 43.941723783871659 ], [ -80.451962599857779, 43.942459884774856 ], [ -80.451972900328968, 43.942693985170202 ], [ -80.452804600725187, 43.943040184890997 ], [ -80.453130201516245, 43.942861585077139 ], [ -80.453270301525379, 43.942529184286045 ], [ -80.453431901089644, 43.942574984355929 ], [ -80.453740300693909, 43.9429185837012 ], [ -80.454360401598336, 43.943236684893492 ], [ -80.454382501501783, 43.943551884854521 ], [ -80.454618601584798, 43.943625084745563 ], [ -80.45510490067214, 43.943582384592503 ], [ -80.455996502574962, 43.942830284143668 ], [ -80.455974602335047, 43.942506083865872 ], [ -80.455702501373722, 43.94227968440368 ], [ -80.455263301428417, 43.942610683821478 ], [ -80.455155701240969, 43.942114984278334 ], [ -80.454474801086022, 43.941625584202413 ], [ -80.453865101632587, 43.941532583793744 ] ], [ [ -80.449913500189766, 43.943053284759294 ], [ -80.450102599458774, 43.942820084762495 ], [ -80.450005399750353, 43.94254048457632 ], [ -80.450433200241008, 43.942092385184431 ], [ -80.450435700390727, 43.941822283716569 ], [ -80.449435599634512, 43.94217768522978 ], [ -80.449315699518522, 43.94301438529957 ], [ -80.449734600482344, 43.943529585202761 ], [ -80.44946489984612, 43.944401684715515 ], [ -80.450203499665307, 43.94539558486828 ], [ -80.449993399973351, 43.946556084618244 ], [ -80.450641700063613, 43.946523184821899 ], [ -80.451281099647602, 43.946103085000274 ], [ -80.451247699882742, 43.945670784837276 ], [ -80.450950600274126, 43.945453184774124 ], [ -80.450611400521396, 43.944398184921027 ], [ -80.450151999720262, 43.944215885076893 ], [ -80.450143800132068, 43.943756684731873 ], [ -80.450307699748251, 43.943550384549042 ], [ -80.449913500189766, 43.943053284759294 ] ], [ [ -80.453558200403847, 43.946474084771488 ], [ -80.452735001184848, 43.946560185328984 ], [ -80.452432000603054, 43.946981884971059 ], [ -80.451435700562058, 43.94691408517032 ], [ -80.449961499710994, 43.947312185027464 ], [ -80.449219700552931, 43.948019886280527 ], [ -80.448849399695689, 43.947639986240262 ], [ -80.448562799947197, 43.947629586168937 ], [ -80.448520300493172, 43.948187586401275 ], [ -80.448242199380957, 43.94860948638658 ], [ -80.447364600413977, 43.949181485629651 ], [ -80.446740199449962, 43.949322485828674 ], [ -80.446425298667151, 43.949681086267731 ], [ -80.44656589878376, 43.950645186407634 ], [ -80.447469599662824, 43.951306786378055 ], [ -80.447702799543251, 43.951686086050934 ], [ -80.447852200201268, 43.953055287189784 ], [ -80.447696700369818, 43.953702786741196 ], [ -80.446429199740876, 43.954642087012253 ], [ -80.446113400600112, 43.955099687227822 ], [ -80.447882999899676, 43.95511728740356 ], [ -80.449060900865661, 43.955789286938113 ], [ -80.448881801300217, 43.956283587026178 ], [ -80.448214000126683, 43.957072687239872 ], [ -80.447324299590178, 43.957581586999567 ], [ -80.447034400452125, 43.957931287353851 ], [ -80.446855700541178, 43.95838958803931 ], [ -80.447040500351505, 43.958615587844491 ], [ -80.448608001503857, 43.958947288043689 ], [ -80.448995001478139, 43.958877187592002 ], [ -80.449822300420635, 43.958376886863149 ], [ -80.451107401255669, 43.956879486723757 ], [ -80.452903401558174, 43.955384486757623 ], [ -80.453162801630143, 43.954278286636672 ], [ -80.454104901611259, 43.953472485775912 ], [ -80.454049202156369, 43.952751986068925 ], [ -80.455709101391776, 43.951130186122143 ], [ -80.455773101710747, 43.950950385817869 ], [ -80.455117301538053, 43.950434086428253 ], [ -80.455121501520139, 43.949965985843193 ], [ -80.455672902347629, 43.949635385755329 ], [ -80.456794003332689, 43.949694786043878 ], [ -80.456140502347495, 43.948926385060382 ], [ -80.455792801374372, 43.948789685345993 ], [ -80.455374402136869, 43.948202484797982 ], [ -80.454445901556085, 43.94752278467346 ], [ -80.454242001151798, 43.946648485058155 ], [ -80.453558200403847, 43.946474084771488 ] ], [ [ -80.425393490165717, 43.925879783307984 ], [ -80.426217691389155, 43.925676783312056 ], [ -80.426494690463997, 43.925363082618006 ], [ -80.426814090527188, 43.92323978223871 ], [ -80.426533589715902, 43.922608081681339 ], [ -80.426051990108405, 43.922173482430452 ], [ -80.424971489849085, 43.921834982325976 ], [ -80.42269538913034, 43.921481282260082 ], [ -80.422618988598458, 43.921651981813227 ], [ -80.423067989020751, 43.922887781944212 ], [ -80.423143889743827, 43.924058682593156 ], [ -80.423556889972446, 43.925150182998969 ], [ -80.424323389804087, 43.925748283153439 ], [ -80.425393490165717, 43.925879783307984 ] ] ] } },
{ "type": "Feature", "properties": { "Id": 0, "Hylak_id": 110809, "Lake_name": null, "Country": "Canada", "Continent": "North America", "Poly_src": "Other", "Lake_type": 2, "Grand_id": 1506, "Lake_area": 5.54, "Shore_len": 25.99, "Shore_dev": 3.11999988556, "Vol_total": 61.2, "Vol_res": 61.2, "Vol_src": 2, "Depth_avg": 11.0, "Dis_avg": 5.229, "Res_time": 135.5, "Elevation": 416, "Slope_100": 3.3199999332400001, "Wshd_area": 779.8, "Pour_long": -80.335417, "Pour_lat": 43.735807 }, "geometry": { "type": "Polygon", "coordinates": [ [ [ -80.312837698842287, 43.793786664695617 ], [ -80.316037143988936, 43.790356763673159 ], [ -80.316898044571317, 43.790055863684692 ], [ -80.316929044163558, 43.789533764423361 ], [ -80.319369544123333, 43.788044664165348 ], [ -80.319911644459864, 43.787372564375289 ], [ -80.322665545469022, 43.78563316347087 ], [ -80.323934445746247, 43.784425163067318 ], [ -80.324093544595016, 43.783543763056436 ], [ -80.324581546404417, 43.783249463166122 ], [ -80.325937645622034, 43.780907461771847 ], [ -80.325536946171667, 43.781175261734582 ], [ -80.325738845791548, 43.779798861777188 ], [ -80.325347246225007, 43.779256262016823 ], [ -80.326531146177715, 43.778957161810801 ], [ -80.327756045871865, 43.776110161088539 ], [ -80.329063446206575, 43.774758260719011 ], [ -80.329200045429388, 43.773660560561382 ], [ -80.330712847178134, 43.772823059605848 ], [ -80.331670347399751, 43.770523660027756 ], [ -80.332356146655215, 43.770302559739378 ], [ -80.332476246723644, 43.769564960119013 ], [ -80.332162647439759, 43.768716760211852 ], [ -80.332737946458309, 43.767252459349621 ], [ -80.333113047609103, 43.767038558794773 ], [ -80.333699447571291, 43.765700459081572 ], [ -80.333354346449212, 43.765455359302685 ], [ -80.332224246528966, 43.765412658664133 ], [ -80.334460647249585, 43.764354258994743 ], [ -80.334989347432682, 43.763727058648612 ], [ -80.335064147217835, 43.762511957572499 ], [ -80.334133047268665, 43.761336058201969 ], [ -80.334322747026818, 43.761031058082651 ], [ -80.334277346478444, 43.759455058129504 ], [ -80.335932647013863, 43.755881156679941 ], [ -80.335801146471098, 43.755412157415478 ], [ -80.334947145980735, 43.755128157250049 ], [ -80.33341914542325, 43.755146257081556 ], [ -80.332120646211393, 43.755741857357229 ], [ -80.331439245070115, 43.755575857413881 ], [ -80.331027044665404, 43.754664057320845 ], [ -80.329384245582204, 43.753835056705803 ], [ -80.328332943589402, 43.752316257347829 ], [ -80.327517144474896, 43.748628855907761 ], [ -80.326790242669844, 43.748102355735234 ], [ -80.325860442812811, 43.747952755776531 ], [ -80.328107843794257, 43.746903555817745 ], [ -80.328376743735944, 43.746175756220296 ], [ -80.329915844529168, 43.744041854725374 ], [ -80.330355243723133, 43.74250475519888 ], [ -80.331818343998236, 43.740478454622583 ], [ -80.332064243606268, 43.739588554833269 ], [ -80.331870744201666, 43.739119154701633 ], [ -80.330391643691257, 43.739236554955525 ], [ -80.329480843258963, 43.739618354779793 ], [ -80.328144242694847, 43.739205355312286 ], [ -80.326187641543115, 43.739815154794101 ], [ -80.326094141725292, 43.740399854861387 ], [ -80.325757442069829, 43.740523855272819 ], [ -80.324146342056977, 43.740226254940531 ], [ -80.320466040768196, 43.740609654934659 ], [ -80.318145639797251, 43.740442754708681 ], [ -80.31705723887508, 43.740049055428273 ], [ -80.317858439505741, 43.73948655491121 ], [ -80.31800514027745, 43.738596055273106 ], [ -80.318703440585736, 43.73834815467508 ], [ -80.318448440234604, 43.737833355023554 ], [ -80.318611539643939, 43.737690254925234 ], [ -80.322704040786945, 43.738182855281266 ], [ -80.324070841002225, 43.738109855280648 ], [ -80.325705041795302, 43.737453253891857 ], [ -80.325908441383106, 43.737031253956033 ], [ -80.325790842136314, 43.736445254233523 ], [ -80.326725642421579, 43.737243153827215 ], [ -80.327542142801278, 43.737518054204457 ], [ -80.330164342400025, 43.737344354112395 ], [ -80.331799044147402, 43.73663365421551 ], [ -80.331952543873683, 43.735112854324008 ], [ -80.332508143713511, 43.735404254112808 ], [ -80.332489543810027, 43.735962354205618 ], [ -80.332945543956882, 43.736271154297079 ], [ -80.333622144536577, 43.73572585421644 ], [ -80.333852843789785, 43.735078953939137 ], [ -80.335081445538208, 43.734023653183428 ], [ -80.340157746602841, 43.735385652861957 ], [ -80.340440645564868, 43.735630353154683 ], [ -80.340170146162379, 43.736511254204721 ], [ -80.340561346448496, 43.737080754177661 ], [ -80.342909846702739, 43.738075653987543 ], [ -80.342548547092804, 43.738181654334724 ], [ -80.341137147171594, 43.737795353891293 ], [ -80.339745145895336, 43.737895353710286 ], [ -80.33951444632811, 43.738551353639295 ], [ -80.338930446404873, 43.738583954312645 ], [ -80.338403445478932, 43.739076154135958 ], [ -80.336897146268285, 43.741651555089092 ], [ -80.33607004659514, 43.742331054698028 ], [ -80.335775246415864, 43.743157654645486 ], [ -80.335875445435164, 43.744202755049308 ], [ -80.337604147348642, 43.747364156424169 ], [ -80.338074346819994, 43.747528956391122 ], [ -80.338920546814904, 43.747380756135335 ], [ -80.340815747340258, 43.745581955390371 ], [ -80.341950347657871, 43.74518325513705 ], [ -80.344397048638001, 43.745179355241909 ], [ -80.347172349850112, 43.745798455301397 ], [ -80.349597250094533, 43.746676755010796 ], [ -80.353007451810228, 43.748316755423382 ], [ -80.353558952409472, 43.749013155141789 ], [ -80.35379915187518, 43.749770855068007 ], [ -80.353407852228017, 43.751506455717568 ], [ -80.353749951950661, 43.752039556330843 ], [ -80.353060552252742, 43.75261195578274 ], [ -80.352520451427068, 43.754319655920874 ], [ -80.351926952309412, 43.754064155655094 ], [ -80.351991851543573, 43.753803455566995 ], [ -80.3499872512471, 43.754242255794985 ], [ -80.345620049849785, 43.757179556903615 ], [ -80.344200550216286, 43.758621057181458 ], [ -80.344185149907247, 43.758900157172526 ], [ -80.3424921491535, 43.759286558036187 ], [ -80.34237724897757, 43.759574058059791 ], [ -80.342680748909871, 43.7602150582223 ], [ -80.341266849032195, 43.764537759316667 ], [ -80.341397949248943, 43.765042758790976 ], [ -80.340731548739029, 43.765759259269124 ], [ -80.339494249147208, 43.769749859782834 ], [ -80.338811348870905, 43.770835359678273 ], [ -80.338891949224092, 43.771412059761488 ], [ -80.338231049218848, 43.771624360336197 ], [ -80.337107149489327, 43.773256459646674 ], [ -80.337027049641449, 43.773760259583341 ], [ -80.336185948792561, 43.774538760547635 ], [ -80.33643564839592, 43.776683061380446 ], [ -80.335850748514943, 43.777877161200024 ], [ -80.334334048185795, 43.77905686085434 ], [ -80.332886248472363, 43.779624661647667 ], [ -80.331445948154141, 43.780633761878612 ], [ -80.330764246797997, 43.781584161921813 ], [ -80.330645647118786, 43.782186662001237 ], [ -80.329234346591591, 43.783925162275963 ], [ -80.329255747310526, 43.784231462714388 ], [ -80.328352746957933, 43.784964462616088 ], [ -80.327869446582284, 43.784844563393989 ], [ -80.328226647245728, 43.784018262675488 ], [ -80.327359147583152, 43.783797063026213 ], [ -80.326938546593709, 43.78473106331807 ], [ -80.326373146523736, 43.785285963430603 ], [ -80.326915046617373, 43.785694263321219 ], [ -80.32656634652183, 43.785782263204673 ], [ -80.327441946657345, 43.786390663267717 ], [ -80.326637446562529, 43.786097863066907 ], [ -80.326454346769964, 43.786907162641924 ], [ -80.325225545546687, 43.787863263327182 ], [ -80.323898746477539, 43.78869276367459 ], [ -80.322500844620407, 43.789215763897445 ], [ -80.320944844550226, 43.789422564149802 ], [ -80.319706144437632, 43.790144564120325 ], [ -80.319787745085648, 43.790622263728693 ], [ -80.319405044739639, 43.790394864369873 ], [ -80.318581144464773, 43.790705064182092 ], [ -80.31765074346815, 43.790555463529856 ], [ -80.317699143872858, 43.791762264422907 ], [ -80.317997143693603, 43.791782064181945 ], [ -80.317745043485331, 43.792095663720644 ], [ -80.318466243837847, 43.79207296418295 ], [ -80.318425044327228, 43.792414864143517 ], [ -80.31765234417206, 43.792590364982885 ], [ -80.316949843548926, 43.792072963561154 ], [ -80.314818218988435, 43.796175200619565 ], [ -80.314146403294615, 43.797028680059782 ], [ -80.314414092184165, 43.798545586633324 ], [ -80.313700254269349, 43.79952711475535 ], [ -80.312480780238545, 43.80021121043746 ], [ -80.312153603400475, 43.800984533856351 ], [ -80.312094117525106, 43.802144522084838 ], [ -80.31114233339828, 43.803929117268986 ], [ -80.309298251435465, 43.80529730717582 ], [ -80.30873312924966, 43.806189605154614 ], [ -80.308554669600923, 43.807290106030536 ], [ -80.30819775026751, 43.807795742324501 ], [ -80.307751601636568, 43.807765997731018 ], [ -80.307632628190092, 43.807111646790709 ], [ -80.308049034568057, 43.805029617607083 ], [ -80.310339264468467, 43.803126049412484 ], [ -80.310636698297486, 43.802531184171144 ], [ -80.310636697653649, 43.801728116207194 ], [ -80.310220291890346, 43.800865561155078 ], [ -80.310279778908807, 43.799973262895747 ], [ -80.312094118323316, 43.79878353304391 ], [ -80.312837698842287, 43.793786664695617 ] ] ] } }
]
}
