{
"type": "FeatureCollection",
"name": "sl_non_connected_lake_v1-0",
"crs": { "type": "name", "properties": { "name": "urn:ogc:def:crs:OGC:1.3:CRS84" } },
"features": [
{ "type": "Feature", "properties": { "Id": 0, "Hylak_id": 1047167, "Lake_name": null, "Country": "Canada", "Continent": "North America", "Poly_src": "SWBD", "Lake_type": 1, "Grand_id": 0, "Lake_area": 0.2, "Shore_len": 1.85, "Shore_dev": 1.1699999570799999, "Vol_total": 0.37, "Vol_res": 0.0, "Vol_src": 3, "Depth_avg": 1.7999999523200001, "Dis_avg": 0.12, "Res_time": 35.4, "Elevation": 481, "Slope_100": 0.64999997615799998, "Wshd_area": 17.3, "Pour_long": -80.396875, "Pour_lat": 43.931015 }, "geometry": { "type": "Polygon", "coordinates": [ [ [ -80.394819337036836, 43.929358413771148 ], [ -80.397222222650768, 43.927004355163646 ], [ -80.39852267857097, 43.927178237358085 ], [ -80.399042969833232, 43.92831240626009 ], [ -80.400344510437009, 43.929475330167136 ], [ -80.397527669874407, 43.932628541304247 ], [ -80.395805122728106, 43.933246488294095 ], [ -80.394102105891065, 43.932883532833834 ], [ -80.394913195423541, 43.930933662851672 ], [ -80.394819337036836, 43.929358413771148 ] ] ] } },
{ "type": "Feature", "properties": { "Id": 0, "Hylak_id": 1047297, "Lake_name": null, "Country": "Canada", "Continent": "North America", "Poly_src": "CanVec", "Lake_type": 1, "Grand_id": 0, "Lake_area": 0.14, "Shore_len": 2.26, "Shore_dev": 1.67999994755, "Vol_total": 0.25, "Vol_res": 0.0, "Vol_src": 3, "Depth_avg": 1.7999999523200001, "Dis_avg": 0.094, "Res_time": 31.3, "Elevation": 471, "Slope_100": 0.66000002622599996, "Wshd_area": 13.6, "Pour_long": -80.199112, "Pour_lat": 43.892745 }, "geometry": { "type": "Polygon", "coordinates": [ [ [ -80.198341415650034, 43.892801187649383 ], [ -80.19765431521239, 43.892049086856424 ], [ -80.198878214511467, 43.891769587185955 ], [ -80.200341215613662, 43.890357286913101 ], [ -80.200477514939877, 43.889475987409078 ], [ -80.202472016639589, 43.889282786638212 ], [ -80.203316915748218, 43.888478386665085 ], [ -80.204354616410797, 43.888143486755851 ], [ -80.204883716682701, 43.887679086033195 ], [ -80.205703816935966, 43.887792785674769 ], [ -80.205797917293523, 43.888207585907352 ], [ -80.206760417169406, 43.888853587264897 ], [ -80.205191316640608, 43.889823987308013 ], [ -80.204058717329332, 43.88979808717378 ], [ -80.201188816252028, 43.891218586987037 ], [ -80.200708916578009, 43.891728386763873 ], [ -80.200712316566722, 43.892403686852475 ], [ -80.201028716326263, 43.892955187586672 ], [ -80.199947315364739, 43.893748888281799 ], [ -80.199022815380744, 43.893985487584374 ], [ -80.198391114410072, 43.893737988094543 ], [ -80.198341415650034, 43.892801187649383 ] ] ] } }
]
}
